{"type":"FeatureCollection","name":"comunas","crs":{"type":"name","properties":{"name":"urn:ogc:def:crs:OGC:1.3:CRS84"}},"xy_coordinate_resolution":1e-06,"features":[{"type":"Feature","properties":{"cod_comuna":7103,"codregion":7,"Comuna":"Curepto","Provincia":"Talca","Region":"Región del Maule"},"geometry":{"type":"Polygon","coordinates":[[[-72.1498,-35.059],[-72.1416,-35.0594],[-72.1304,-35.0546],[-72.1241,-35.0361],[-72.114,-35.037],[-72.0936,-35.0497],[-72.0669,-35.039],[-72.0564,-35.0309],[-72.0513,-35.0185],[-72.045,-35.0158],[-72.0295,-34.9969],[-72.0005,-34.9813],[-71.9959,-34.9819],[-71.98,-35.0039],[-71.9585,-35.0095],[-71.9564,-35.0035],[-71.9375,-34.9964],[-71.9081,-35.0047],[-71.9026,-34.9944],[-71.8899,-34.9978],[-71.8811,-34.9933],[-71.8548,-34.99],[-71.8509,-34.9877],[-71.8501,-34.9797],[-71.8165,-34.9716],[-71.8134,-34.9742],[-71.8142,-34.9833],[-71.8071,-34.9896],[-71.7966,-34.9922],[-71.7914,-34.9977],[-71.7853,-34.9932],[-71.7753,-34.9946],[-71.7726,-34.9998],[-71.7653,-35.0015],[-71.7651,-35.0131],[-71.7572,-35.0168],[-71.7574,-35.0301],[-71.7315,-35.0561],[-71.7283,-35.0612],[-71.7281,-35.0729],[-71.7223,-35.0777],[-71.7216,-35.0847],[-71.7095,-35.0971],[-71.6844,-35.1101],[-71.6854,-35.1269],[-71.6805,-35.138],[-71.6752,-35.1389],[-71.6713,-35.1552],[-71.6759,-35.161],[-71.6945,-35.1652],[-71.7105,-35.1581],[-71.7159,-35.1503],[-71.7285,-35.1467],[-71.7446,-35.1479],[-71.7508,-35.1455],[-71.77,-35.1502],[-71.7701,-35.1652],[-71.7771,-35.1725],[-71.7857,-35.1735],[-71.7861,-35.1837],[-71.7899,-35.1895],[-71.7984,-35.1876],[-71.8061,-35.1957],[-71.8307,-35.2038],[-71.8449,-35.2156],[-71.8541,-35.2148],[-71.8565,-35.2063],[-71.8599,-35.2049],[-71.865,-35.2065],[-71.8697,-35.2134],[-71.8772,-35.2139],[-71.8724,-35.2298],[-71.8779,-35.232],[-71.8817,-35.2411],[-71.8884,-35.2473],[-71.896,-35.2482],[-71.8968,-35.2585],[-71.91,-35.2644],[-71.9139,-35.2712],[-71.9306,-35.2808],[-71.9355,-35.2871],[-71.951,-35.2934],[-71.9665,-35.2878],[-71.9753,-35.2924],[-71.9879,-35.2914],[-71.9971,-35.3004],[-71.9975,-35.3066],[-72.0105,-35.3167],[-72.0092,-35.3261],[-72.0137,-35.3343],[-72.0258,-35.3376],[-72.0405,-35.3468],[-72.0476,-35.3383],[-72.0461,-35.3309],[-72.0567,-35.3207],[-72.053,-35.2955],[-72.0591,-35.2891],[-72.0575,-35.268],[-72.0664,-35.2643],[-72.0675,-35.2505],[-72.0862,-35.2506],[-72.0977,-35.2442],[-72.1068,-35.2473],[-72.1257,-35.2349],[-72.1453,-35.2047],[-72.1352,-35.1691],[-72.1364,-35.1642],[-72.144,-35.1578],[-72.1445,-35.1504],[-72.1581,-35.1366],[-72.1696,-35.1353],[-72.1718,-35.1396],[-72.1805,-35.1357],[-72.1966,-35.1409],[-72.1976,-35.1336],[-72.2123,-35.1223],[-72.2006,-35.1077],[-72.1883,-35.0667],[-72.1851,-34.9727],[-72.1748,-35.0359],[-72.1664,-35.049],[-72.1518,-35.0588],[-72.1498,-35.059]]]}},{"type":"Feature","properties":{"cod_comuna":7104,"codregion":7,"Comuna":"Empedrado","Provincia":"Talca","Region":"Región del Maule"},"geometry":{"type":"Polygon","coordinates":[[[-72.3142,-35.4807],[-72.2963,-35.4775],[-72.248,-35.5119],[-72.2485,-35.5296],[-72.2442,-35.5389],[-72.2447,-35.5462],[-72.2278,-35.5621],[-72.2223,-35.572],[-72.2231,-35.5788],[-72.2282,-35.5837],[-72.212,-35.5843],[-72.2103,-35.5899],[-72.2001,-35.5942],[-72.1892,-35.5776],[-72.1812,-35.5749],[-72.1741,-35.5798],[-72.1707,-35.5894],[-72.1773,-35.6055],[-72.1875,-35.6159],[-72.1649,-35.6313],[-72.1504,-35.6348],[-72.1384,-35.6586],[-72.1389,-35.666],[-72.1261,-35.6459],[-72.0911,-35.6458],[-72.0857,-35.6496],[-72.0846,-35.6587],[-72.0787,-35.6657],[-72.0844,-35.6726],[-72.0321,-35.6712],[-72.0374,-35.672],[-72.0427,-35.6957],[-72.0489,-35.7022],[-72.0598,-35.7045],[-72.0629,-35.7157],[-72.0659,-35.7117],[-72.0724,-35.7113],[-72.0831,-35.7184],[-72.0901,-35.7171],[-72.0982,-35.7202],[-72.113,-35.7177],[-72.1307,-35.7011],[-72.139,-35.6995],[-72.1498,-35.7107],[-72.1859,-35.7198],[-72.2019,-35.7167],[-72.2047,-35.722],[-72.2241,-35.7246],[-72.2363,-35.7301],[-72.24,-35.7355],[-72.2547,-35.721],[-72.2545,-35.7123],[-72.2723,-35.6939],[-72.2859,-35.694],[-72.2946,-35.6974],[-72.3097,-35.694],[-72.3147,-35.6909],[-72.3166,-35.6833],[-72.3245,-35.6737],[-72.3521,-35.6892],[-72.3731,-35.6935],[-72.4225,-35.6705],[-72.4359,-35.6598],[-72.4397,-35.6483],[-72.4436,-35.6489],[-72.45,-35.644],[-72.4588,-35.6441],[-72.4588,-35.6385],[-72.4553,-35.6361],[-72.4514,-35.6395],[-72.4471,-35.6349],[-72.4438,-35.6361],[-72.4453,-35.6287],[-72.4431,-35.6264],[-72.4506,-35.6173],[-72.4391,-35.6133],[-72.4375,-35.6082],[-72.4324,-35.6062],[-72.4416,-35.5777],[-72.436,-35.5609],[-72.4381,-35.5547],[-72.4356,-35.5416],[-72.4268,-35.5439],[-72.4218,-35.5345],[-72.4274,-35.5351],[-72.4304,-35.5307],[-72.4432,-35.5281],[-72.4442,-35.5222],[-72.4252,-35.5098],[-72.4155,-35.5084],[-72.395,-35.4977],[-72.3838,-35.4852],[-72.3415,-35.4784],[-72.3342,-35.482],[-72.3203,-35.4777],[-72.3153,-35.4806],[-72.3142,-35.4807]]]}},{"type":"Feature","properties":{"cod_comuna":7107,"codregion":7,"Comuna":"Pencahue","Provincia":"Talca","Region":"Región del Maule"},"geometry":{"type":"Polygon","coordinates":[[[-71.7446,-35.1479],[-71.7369,-35.1459],[-71.7159,-35.1503],[-71.7105,-35.1581],[-71.6955,-35.1651],[-71.6789,-35.1616],[-71.6792,-35.1672],[-71.6723,-35.1754],[-71.6726,-35.1962],[-71.669,-35.2051],[-71.6511,-35.216],[-71.6386,-35.2139],[-71.629,-35.2206],[-71.629,-35.2282],[-71.5988,-35.2243],[-71.5907,-35.2137],[-71.5774,-35.2057],[-71.5761,-35.2112],[-71.5661,-35.2124],[-71.5635,-35.221],[-71.5564,-35.2269],[-71.5618,-35.2474],[-71.5685,-35.2554],[-71.5662,-35.2645],[-71.5732,-35.277],[-71.5685,-35.2803],[-71.5731,-35.2932],[-71.5867,-35.2938],[-71.59,-35.2887],[-71.6048,-35.2876],[-71.6244,-35.3006],[-71.6304,-35.3006],[-71.6351,-35.313],[-71.6518,-35.3143],[-71.648,-35.3178],[-71.6552,-35.3241],[-71.6555,-35.3365],[-71.6627,-35.3468],[-71.6637,-35.3662],[-71.6681,-35.3779],[-71.676,-35.3887],[-71.6859,-35.3916],[-71.6963,-35.4145],[-71.7204,-35.4382],[-71.7219,-35.4474],[-71.7343,-35.4532],[-71.7391,-35.4629],[-71.7479,-35.465],[-71.7674,-35.4562],[-71.7841,-35.4626],[-71.793,-35.4564],[-71.8062,-35.4538],[-71.8223,-35.4601],[-71.8411,-35.4599],[-71.8462,-35.4563],[-71.8529,-35.4593],[-71.8734,-35.4582],[-71.8797,-35.4609],[-71.8812,-35.465],[-71.8881,-35.4633],[-71.8904,-35.4665],[-71.9051,-35.4706],[-71.925,-35.4633],[-71.9427,-35.4719],[-71.9668,-35.4704],[-71.9753,-35.4624],[-71.9889,-35.4612],[-71.9989,-35.4502],[-72.0116,-35.4513],[-72.0198,-35.4466],[-72.0304,-35.4484],[-72.0392,-35.44],[-72.0397,-35.4359],[-72.0502,-35.4319],[-72.0585,-35.4328],[-72.0672,-35.4245],[-72.0684,-35.4185],[-72.0725,-35.4177],[-72.0781,-35.4194],[-72.09,-35.4314],[-72.0935,-35.4422],[-72.1065,-35.4389],[-72.0965,-35.433],[-72.0974,-35.4274],[-72.0939,-35.4228],[-72.0999,-35.4118],[-72.0961,-35.405],[-72.0995,-35.4036],[-72.1044,-35.3918],[-72.0907,-35.3743],[-72.082,-35.3728],[-72.0768,-35.3781],[-72.0686,-35.3767],[-72.062,-35.3801],[-72.0535,-35.3704],[-72.0366,-35.379],[-72.0314,-35.3787],[-72.0291,-35.384],[-72.0191,-35.3776],[-72.0127,-35.3799],[-72.0021,-35.3779],[-71.9956,-35.3687],[-72.0009,-35.3611],[-72.0135,-35.3595],[-72.0169,-35.3548],[-72.0137,-35.3465],[-72.0215,-35.3375],[-72.0134,-35.3339],[-72.0092,-35.3261],[-72.0105,-35.3167],[-71.9975,-35.3066],[-71.9971,-35.3004],[-71.9879,-35.2914],[-71.9753,-35.2924],[-71.9665,-35.2878],[-71.9533,-35.2937],[-71.9355,-35.2871],[-71.9306,-35.2808],[-71.9139,-35.2712],[-71.91,-35.2644],[-71.8968,-35.2585],[-71.896,-35.2482],[-71.8884,-35.2473],[-71.8817,-35.2411],[-71.8779,-35.232],[-71.8725,-35.23],[-71.8772,-35.2139],[-71.8697,-35.2134],[-71.865,-35.2065],[-71.8599,-35.2049],[-71.8565,-35.2063],[-71.8541,-35.2148],[-71.8449,-35.2156],[-71.8307,-35.2038],[-71.8061,-35.1957],[-71.7984,-35.1876],[-71.7904,-35.1898],[-71.7861,-35.1837],[-71.7857,-35.1735],[-71.7771,-35.1725],[-71.7701,-35.1652],[-71.77,-35.1502],[-71.7508,-35.1455],[-71.7453,-35.1475],[-71.7446,-35.1479]]]}},{"type":"Feature","properties":{"cod_comuna":7401,"codregion":7,"Comuna":"Linares","Provincia":"Linares","Region":"Región del Maule"},"geometry":{"type":"Polygon","coordinates":[[[-71.7381,-35.7046],[-71.735,-35.7051],[-71.7357,-35.7097],[-71.7298,-35.7145],[-71.7314,-35.7268],[-71.7274,-35.7351],[-71.7216,-35.7358],[-71.7094,-35.7501],[-71.7173,-35.7589],[-71.7099,-35.7615],[-71.7111,-35.7647],[-71.7046,-35.7717],[-71.6988,-35.7698],[-71.6993,-35.7729],[-71.6929,-35.7743],[-71.6821,-35.7703],[-71.6687,-35.7734],[-71.6639,-35.7753],[-71.6649,-35.7838],[-71.6518,-35.7816],[-71.6475,-35.7866],[-71.6384,-35.781],[-71.6143,-35.783],[-71.6061,-35.7778],[-71.5852,-35.7761],[-71.5781,-35.7814],[-71.5512,-35.7768],[-71.5426,-35.78],[-71.5456,-35.7832],[-71.5439,-35.7855],[-71.5348,-35.7814],[-71.527,-35.7822],[-71.5243,-35.786],[-71.5203,-35.7828],[-71.5122,-35.7846],[-71.508,-35.7877],[-71.5114,-35.7928],[-71.5075,-35.793],[-71.5066,-35.7982],[-71.4997,-35.7982],[-71.5008,-35.8025],[-71.4963,-35.8087],[-71.4908,-35.8098],[-71.4842,-35.8203],[-71.4689,-35.823],[-71.4592,-35.8321],[-71.4465,-35.8346],[-71.4392,-35.8417],[-71.405,-35.8545],[-71.3815,-35.8497],[-71.3711,-35.8422],[-71.3631,-35.8438],[-71.3579,-35.8393],[-71.3463,-35.8421],[-71.3379,-35.8384],[-71.2959,-35.8426],[-71.2741,-35.853],[-71.2724,-35.8584],[-71.2568,-35.8614],[-71.246,-35.8583],[-71.2319,-35.8602],[-71.2051,-35.8568],[-71.2016,-35.8591],[-71.1856,-35.8528],[-71.1596,-35.857],[-71.1449,-35.8534],[-71.1207,-35.8638],[-71.1183,-35.87],[-71.0764,-35.8576],[-71.0643,-35.8618],[-71.0536,-35.8567],[-71.0462,-35.859],[-71.0476,-35.8724],[-71.0436,-35.882],[-71.0484,-35.892],[-71.0556,-35.8958],[-71.068,-35.9122],[-71.0715,-35.9243],[-71.0689,-35.9289],[-71.0822,-35.9416],[-71.0815,-35.9499],[-71.0918,-35.9539],[-71.1055,-35.9803],[-71.1144,-35.9854],[-71.1259,-35.9849],[-71.1328,-36.0005],[-71.1315,-36.0084],[-71.1133,-36.0152],[-71.1021,-36.0153],[-71.0982,-36.0199],[-71.0804,-36.0263],[-71.071,-36.0162],[-71.0712,-36.0078],[-71.0764,-36.0033],[-71.071,-35.9919],[-71.0504,-36.0007],[-71.035,-35.9996],[-71.0355,-36.0057],[-71.046,-36.0139],[-71.0434,-36.028],[-71.0378,-36.0357],[-71.0463,-36.0386],[-71.0461,-36.0456],[-71.0358,-36.0589],[-71.0354,-36.0695],[-71.0316,-36.074],[-71.0118,-36.0794],[-71.0056,-36.088],[-71.0119,-36.1035],[-71.0236,-36.1106],[-71.0306,-36.1211],[-71.031,-36.1319],[-71.0168,-36.1339],[-71.0253,-36.1444],[-71.0316,-36.147],[-71.0329,-36.1525],[-71.027,-36.1552],[-71.0277,-36.1699],[-71.0184,-36.1795],[-71.0304,-36.1949],[-71.0298,-36.2008],[-71.035,-36.2121],[-71.0435,-36.2198],[-71.0507,-36.2154],[-71.0568,-36.2235],[-71.0634,-36.2256],[-71.0652,-36.2168],[-71.0611,-36.2117],[-71.065,-36.2074],[-71.0638,-36.2024],[-71.088,-36.1865],[-71.095,-36.1565],[-71.1081,-36.148],[-71.1223,-36.1167],[-71.1333,-36.1125],[-71.1545,-36.0947],[-71.1783,-36.0907],[-71.1976,-36.0935],[-71.214,-36.107],[-71.2162,-36.116],[-71.2302,-36.1286],[-71.2355,-36.1414],[-71.2484,-36.1441],[-71.2521,-36.1492],[-71.2572,-36.1474],[-71.2901,-36.1586],[-71.299,-36.1644],[-71.3072,-36.1642],[-71.3086,-36.1687],[-71.3151,-36.1654],[-71.321,-36.1672],[-71.3253,-36.163],[-71.3413,-36.1646],[-71.3457,-36.1608],[-71.3574,-36.1606],[-71.3625,-36.153],[-71.3669,-36.1555],[-71.375,-36.1512],[-71.3789,-36.1461],[-71.3763,-36.1401],[-71.3829,-36.1364],[-71.3794,-36.1282],[-71.3963,-36.1098],[-71.3977,-36.0967],[-71.3901,-36.083],[-71.3999,-36.0645],[-71.4016,-36.0439],[-71.4176,-36.0249],[-71.4157,-36.0221],[-71.418,-36.0182],[-71.4252,-36.0173],[-71.4326,-36.0086],[-71.4436,-36.007],[-71.451,-35.9905],[-71.4643,-35.9872],[-71.4757,-35.9884],[-71.4826,-35.9852],[-71.4898,-35.9759],[-71.4903,-35.9657],[-71.4948,-35.96],[-71.4952,-35.9407],[-71.5106,-35.9224],[-71.5087,-35.9158],[-71.5674,-35.9082],[-71.6207,-35.893],[-71.6265,-35.8817],[-71.6373,-35.8788],[-71.6642,-35.8561],[-71.6714,-35.8545],[-71.6958,-35.8583],[-71.7027,-35.8509],[-71.7027,-35.8443],[-71.7135,-35.8395],[-71.7141,-35.8342],[-71.7293,-35.8309],[-71.7336,-35.8248],[-71.7524,-35.8161],[-71.7546,-35.8077],[-71.7671,-35.801],[-71.7854,-35.7831],[-71.7945,-35.7853],[-71.7966,-35.7749],[-71.7935,-35.7644],[-71.7812,-35.7591],[-71.7752,-35.7474],[-71.7727,-35.7386],[-71.7738,-35.7193],[-71.764,-35.7121],[-71.7646,-35.7073],[-71.7551,-35.7105],[-71.7498,-35.7055],[-71.739,-35.7045],[-71.7381,-35.7046]]]}},{"type":"Feature","properties":{"cod_comuna":7403,"codregion":7,"Comuna":"Longaví","Provincia":"Linares","Region":"Región del Maule"},"geometry":{"type":"Polygon","coordinates":[[[-71.7937,-35.7859],[-71.7854,-35.7831],[-71.7671,-35.801],[-71.7546,-35.8077],[-71.7524,-35.8161],[-71.7336,-35.8248],[-71.7293,-35.8309],[-71.7141,-35.8342],[-71.7135,-35.8395],[-71.7027,-35.8443],[-71.7027,-35.8509],[-71.6958,-35.8583],[-71.6714,-35.8545],[-71.6642,-35.8561],[-71.6373,-35.8788],[-71.6265,-35.8817],[-71.6207,-35.893],[-71.5674,-35.9082],[-71.5087,-35.9158],[-71.5106,-35.9224],[-71.4952,-35.9407],[-71.4948,-35.96],[-71.4903,-35.9657],[-71.4898,-35.9759],[-71.4826,-35.9852],[-71.4757,-35.9884],[-71.4643,-35.9872],[-71.451,-35.9905],[-71.4436,-36.007],[-71.4326,-36.0086],[-71.4252,-36.0173],[-71.418,-36.0182],[-71.4157,-36.0221],[-71.4176,-36.0249],[-71.4016,-36.0439],[-71.3999,-36.0645],[-71.3901,-36.083],[-71.3977,-36.0967],[-71.3963,-36.1098],[-71.3794,-36.1282],[-71.3829,-36.1364],[-71.3762,-36.1404],[-71.3776,-36.1487],[-71.3669,-36.1555],[-71.3625,-36.153],[-71.3582,-36.1604],[-71.3451,-36.161],[-71.3413,-36.1646],[-71.3253,-36.163],[-71.321,-36.1672],[-71.3151,-36.1654],[-71.3093,-36.1689],[-71.3072,-36.1642],[-71.299,-36.1644],[-71.2572,-36.1474],[-71.2513,-36.149],[-71.2484,-36.1441],[-71.2342,-36.1404],[-71.2302,-36.1286],[-71.2168,-36.1169],[-71.214,-36.107],[-71.2055,-36.1022],[-71.205,-36.0983],[-71.1874,-36.0915],[-71.1532,-36.0951],[-71.1333,-36.1125],[-71.1223,-36.1167],[-71.1081,-36.148],[-71.095,-36.1565],[-71.0883,-36.1861],[-71.064,-36.2021],[-71.065,-36.2074],[-71.0611,-36.2117],[-71.0652,-36.2168],[-71.0634,-36.2256],[-71.087,-36.2282],[-71.09,-36.2351],[-71.1023,-36.24],[-71.1106,-36.2373],[-71.1159,-36.2485],[-71.1222,-36.2496],[-71.1261,-36.2549],[-71.1556,-36.2625],[-71.1507,-36.2793],[-71.1555,-36.2886],[-71.1516,-36.2949],[-71.1535,-36.2994],[-71.1306,-36.3147],[-71.1344,-36.3222],[-71.1256,-36.3274],[-71.1427,-36.3436],[-71.1439,-36.3581],[-71.1511,-36.3718],[-71.1644,-36.3772],[-71.1667,-36.386],[-71.1712,-36.3881],[-71.2089,-36.3768],[-71.229,-36.3813],[-71.2371,-36.3793],[-71.2644,-36.3527],[-71.2876,-36.3472],[-71.2861,-36.3416],[-71.2955,-36.3279],[-71.2949,-36.3183],[-71.299,-36.3157],[-71.2974,-36.3124],[-71.3024,-36.3065],[-71.3015,-36.3017],[-71.3137,-36.2873],[-71.3224,-36.2888],[-71.326,-36.2851],[-71.3251,-36.2814],[-71.3384,-36.2739],[-71.3348,-36.2692],[-71.3414,-36.2561],[-71.3504,-36.2545],[-71.3595,-36.2423],[-71.3695,-36.2393],[-71.3689,-36.2355],[-71.3764,-36.236],[-71.388,-36.2288],[-71.404,-36.2299],[-71.4156,-36.2353],[-71.4234,-36.2323],[-71.4359,-36.2361],[-71.4455,-36.2336],[-71.4483,-36.2374],[-71.4681,-36.2196],[-71.4695,-36.2216],[-71.4773,-36.2189],[-71.4943,-36.2241],[-71.4985,-36.2347],[-71.5105,-36.2386],[-71.5214,-36.238],[-71.5275,-36.2293],[-71.5355,-36.2309],[-71.5575,-36.2215],[-71.5631,-36.2117],[-71.5655,-36.2036],[-71.5625,-36.1991],[-71.5671,-36.1916],[-71.5741,-36.1879],[-71.574,-36.184],[-71.5882,-36.1702],[-71.6063,-36.1569],[-71.6071,-36.1496],[-71.6169,-36.1492],[-71.6264,-36.1391],[-71.6448,-36.1327],[-71.6793,-36.1037],[-71.6826,-36.0901],[-71.6886,-36.0809],[-71.69,-36.0688],[-71.6961,-36.0683],[-71.7081,-36.056],[-71.7062,-36.045],[-71.7184,-36.0395],[-71.715,-36.0273],[-71.7199,-36.0248],[-71.7193,-36.0142],[-71.724,-36.0031],[-71.7305,-35.9971],[-71.7296,-35.9855],[-71.7242,-35.9773],[-71.7259,-35.9715],[-71.7208,-35.9689],[-71.7243,-35.9563],[-71.7224,-35.9517],[-71.7282,-35.9463],[-71.7324,-35.9335],[-71.7259,-35.9152],[-71.7332,-35.9141],[-71.733,-35.9079],[-71.7411,-35.9005],[-71.7546,-35.8997],[-71.7575,-35.8929],[-71.7645,-35.8912],[-71.7672,-35.8821],[-71.7656,-35.8715],[-71.7715,-35.8678],[-71.7733,-35.8489],[-71.7868,-35.8511],[-71.7957,-35.8323],[-71.8062,-35.8336],[-71.8121,-35.8284],[-71.8223,-35.8306],[-71.825,-35.8277],[-71.8215,-35.8086],[-71.8175,-35.8034],[-71.7983,-35.8016],[-71.7923,-35.7976],[-71.7905,-35.7922],[-71.7974,-35.7852],[-71.7965,-35.7819],[-71.7942,-35.7856],[-71.7937,-35.7859]]]}},{"type":"Feature","properties":{"cod_comuna":7101,"codregion":7,"Comuna":"Talca","Provincia":"Talca","Region":"Región del Maule"},"geometry":{"type":"Polygon","coordinates":[[[-71.6394,-35.3132],[-71.6344,-35.3123],[-71.6381,-35.3233],[-71.6426,-35.3272],[-71.6414,-35.3331],[-71.6251,-35.3458],[-71.6213,-35.3554],[-71.6071,-35.3582],[-71.6002,-35.3527],[-71.5941,-35.356],[-71.5924,-35.3534],[-71.5862,-35.3555],[-71.5734,-35.3528],[-71.5681,-35.3619],[-71.5551,-35.3625],[-71.5539,-35.3654],[-71.5491,-35.3638],[-71.5489,-35.3588],[-71.5436,-35.359],[-71.5483,-35.3942],[-71.5516,-35.3957],[-71.5542,-35.4093],[-71.5612,-35.4093],[-71.5656,-35.4131],[-71.5591,-35.4098],[-71.543,-35.4199],[-71.5183,-35.413],[-71.493,-35.423],[-71.4957,-35.4323],[-71.4923,-35.4353],[-71.498,-35.4519],[-71.5049,-35.4506],[-71.5329,-35.4962],[-71.5416,-35.488],[-71.5587,-35.5114],[-71.5539,-35.5133],[-71.561,-35.5252],[-71.5639,-35.5248],[-71.5686,-35.5309],[-71.5823,-35.528],[-71.6349,-35.484],[-71.6429,-35.4672],[-71.6405,-35.4605],[-71.6447,-35.4562],[-71.6591,-35.451],[-71.6982,-35.4511],[-71.7074,-35.4446],[-71.7219,-35.4474],[-71.7204,-35.4382],[-71.696,-35.4142],[-71.6874,-35.3935],[-71.676,-35.3887],[-71.6681,-35.3779],[-71.6637,-35.3662],[-71.6627,-35.3468],[-71.6555,-35.3365],[-71.6552,-35.3241],[-71.648,-35.3178],[-71.6518,-35.3143],[-71.6407,-35.3127],[-71.6394,-35.3132]]]}},{"type":"Feature","properties":{"cod_comuna":7202,"codregion":7,"Comuna":"Chanco","Provincia":"Cauquenes","Region":"Región del Maule"},"geometry":{"type":"Polygon","coordinates":[[[-72.5643,-35.7553],[-72.5909,-35.6817],[-72.6377,-35.6035],[-72.631,-35.5962],[-72.6282,-35.5872],[-72.62,-35.5806],[-72.6183,-35.5619],[-72.6158,-35.5669],[-72.6075,-35.564],[-72.5869,-35.5726],[-72.5686,-35.5741],[-72.5604,-35.5686],[-72.5511,-35.5736],[-72.5329,-35.5724],[-72.5317,-35.5765],[-72.5273,-35.578],[-72.5244,-35.5738],[-72.5194,-35.5744],[-72.5197,-35.5662],[-72.5159,-35.5609],[-72.5083,-35.5633],[-72.5033,-35.5565],[-72.4954,-35.5586],[-72.4966,-35.5527],[-72.4872,-35.5484],[-72.4779,-35.5482],[-72.4685,-35.5523],[-72.4677,-35.5557],[-72.454,-35.5574],[-72.4476,-35.5488],[-72.4358,-35.5411],[-72.4381,-35.5547],[-72.436,-35.5609],[-72.4416,-35.5793],[-72.4324,-35.6062],[-72.4375,-35.6082],[-72.4391,-35.6133],[-72.4506,-35.6173],[-72.4431,-35.6264],[-72.4453,-35.6287],[-72.4438,-35.6361],[-72.4471,-35.6349],[-72.4514,-35.6395],[-72.4553,-35.6361],[-72.4588,-35.6385],[-72.4588,-35.6441],[-72.45,-35.644],[-72.4436,-35.6489],[-72.4397,-35.6483],[-72.4359,-35.6598],[-72.4225,-35.6705],[-72.3731,-35.6935],[-72.3521,-35.6892],[-72.3288,-35.675],[-72.3231,-35.6746],[-72.3348,-35.6967],[-72.3302,-35.7002],[-72.3328,-35.7102],[-72.3424,-35.723],[-72.3399,-35.7313],[-72.343,-35.733],[-72.3414,-35.7371],[-72.3447,-35.7415],[-72.3413,-35.7493],[-72.3602,-35.7599],[-72.3656,-35.7835],[-72.3713,-35.7897],[-72.3688,-35.7924],[-72.375,-35.7935],[-72.3758,-35.802],[-72.3895,-35.8144],[-72.3911,-35.8215],[-72.4187,-35.8246],[-72.4285,-35.834],[-72.4453,-35.8375],[-72.4521,-35.8474],[-72.4636,-35.8454],[-72.4668,-35.8478],[-72.4568,-35.8655],[-72.4495,-35.8683],[-72.4439,-35.8759],[-72.4553,-35.8813],[-72.4707,-35.8809],[-72.4826,-35.8503],[-72.4929,-35.838],[-72.5134,-35.8331],[-72.5217,-35.8253],[-72.527,-35.8245],[-72.5219,-35.814],[-72.5221,-35.806],[-72.5301,-35.8037],[-72.5254,-35.7983],[-72.5281,-35.7941],[-72.5352,-35.795],[-72.5417,-35.7917],[-72.5289,-35.78],[-72.5389,-35.7789],[-72.5415,-35.7736],[-72.5546,-35.7756],[-72.561,-35.7683],[-72.5643,-35.7554],[-72.5643,-35.7553]]]}},{"type":"Feature","properties":{"cod_comuna":7203,"codregion":7,"Comuna":"Pelluhue","Provincia":"Cauquenes","Region":"Región del Maule"},"geometry":{"type":"Polygon","coordinates":[[[-72.5647,-35.7563],[-72.561,-35.7683],[-72.5546,-35.7756],[-72.5415,-35.7736],[-72.5389,-35.7789],[-72.5291,-35.7796],[-72.5417,-35.7917],[-72.5352,-35.795],[-72.5281,-35.7941],[-72.5254,-35.7983],[-72.5301,-35.8037],[-72.5221,-35.806],[-72.5219,-35.814],[-72.527,-35.8245],[-72.5217,-35.8253],[-72.5134,-35.8331],[-72.4904,-35.8402],[-72.4738,-35.8684],[-72.4707,-35.8809],[-72.4553,-35.8813],[-72.4425,-35.877],[-72.4475,-35.8802],[-72.4496,-35.888],[-72.4275,-35.9081],[-72.4376,-35.9148],[-72.4597,-35.9438],[-72.4707,-35.9406],[-72.4844,-35.9308],[-72.4787,-35.9247],[-72.4863,-35.9188],[-72.4921,-35.9205],[-72.4988,-35.9177],[-72.5199,-35.9243],[-72.5266,-35.9234],[-72.5299,-35.9395],[-72.5527,-35.9494],[-72.5626,-35.9593],[-72.5788,-35.9595],[-72.6027,-35.94],[-72.626,-35.9544],[-72.6338,-35.9517],[-72.6392,-35.9575],[-72.6299,-35.9676],[-72.6366,-35.9847],[-72.6418,-35.986],[-72.648,-35.9939],[-72.6453,-36.0],[-72.6479,-36.0034],[-72.6423,-36.0068],[-72.6463,-36.009],[-72.6437,-36.0115],[-72.6471,-36.0122],[-72.6553,-36.047],[-72.6603,-36.0362],[-72.6767,-36.0278],[-72.6798,-36.0219],[-72.6866,-36.0188],[-72.6962,-36.0221],[-72.7047,-36.017],[-72.7082,-36.0232],[-72.7144,-36.0215],[-72.7184,-36.0242],[-72.7209,-36.0194],[-72.7435,-36.0079],[-72.7596,-36.0056],[-72.7657,-36.0057],[-72.7681,-36.0106],[-72.7781,-36.0145],[-72.7758,-36.0062],[-72.7849,-35.9753],[-72.782,-35.9761],[-72.7791,-35.9706],[-72.7755,-35.9702],[-72.7709,-35.9609],[-72.7653,-35.9607],[-72.7597,-35.9557],[-72.7532,-35.9565],[-72.7364,-35.9405],[-72.7205,-35.9349],[-72.693,-35.9155],[-72.6839,-35.8844],[-72.6708,-35.8729],[-72.6622,-35.87],[-72.6489,-35.8466],[-72.6392,-35.8416],[-72.6376,-35.8444],[-72.6314,-35.8415],[-72.6196,-35.83],[-72.5955,-35.8176],[-72.5771,-35.8132],[-72.5662,-35.793],[-72.5624,-35.7713],[-72.5646,-35.7563],[-72.5647,-35.7563]]]}},{"type":"Feature","properties":{"cod_comuna":7102,"codregion":7,"Comuna":"Constitución","Provincia":"Talca","Region":"Región del Maule"},"geometry":{"type":"Polygon","coordinates":[[[-72.4051,-35.2667],[-72.3981,-35.2413],[-72.3725,-35.2112],[-72.2931,-35.1608],[-72.226,-35.1298],[-72.209,-35.1163],[-72.2002,-35.1039],[-72.2025,-35.1111],[-72.2123,-35.1223],[-72.1976,-35.1336],[-72.1971,-35.1406],[-72.1805,-35.1357],[-72.1718,-35.1396],[-72.1696,-35.1353],[-72.1574,-35.1367],[-72.1445,-35.1504],[-72.144,-35.1578],[-72.1364,-35.1642],[-72.141,-35.1947],[-72.1455,-35.2035],[-72.1257,-35.2349],[-72.1068,-35.2473],[-72.0977,-35.2442],[-72.0862,-35.2506],[-72.0675,-35.2505],[-72.0664,-35.2643],[-72.0575,-35.268],[-72.0591,-35.2891],[-72.053,-35.2955],[-72.0567,-35.3207],[-72.0461,-35.3309],[-72.0476,-35.3383],[-72.0435,-35.345],[-72.0389,-35.3466],[-72.0258,-35.3376],[-72.0214,-35.3376],[-72.0137,-35.3465],[-72.0164,-35.3556],[-72.0131,-35.3598],[-72.0004,-35.3613],[-71.9959,-35.3717],[-72.0038,-35.3786],[-72.0191,-35.3776],[-72.0291,-35.384],[-72.0314,-35.3787],[-72.0366,-35.379],[-72.0535,-35.3704],[-72.062,-35.3801],[-72.0686,-35.3767],[-72.0768,-35.3781],[-72.082,-35.3728],[-72.0894,-35.3735],[-72.0981,-35.3814],[-72.1046,-35.3929],[-72.0961,-35.405],[-72.1,-35.4104],[-72.0945,-35.4191],[-72.0962,-35.4326],[-72.1075,-35.4393],[-72.1287,-35.4757],[-72.1253,-35.4881],[-72.2001,-35.5942],[-72.2103,-35.5899],[-72.212,-35.5843],[-72.2282,-35.5837],[-72.2231,-35.5788],[-72.2223,-35.572],[-72.2278,-35.5621],[-72.2447,-35.5462],[-72.2442,-35.5389],[-72.2485,-35.5296],[-72.248,-35.5119],[-72.2963,-35.4775],[-72.3135,-35.4808],[-72.3203,-35.4777],[-72.3286,-35.4821],[-72.3415,-35.4784],[-72.3838,-35.4852],[-72.395,-35.4977],[-72.4155,-35.5084],[-72.4252,-35.5098],[-72.4442,-35.5222],[-72.4432,-35.5281],[-72.4304,-35.5307],[-72.4274,-35.5351],[-72.4222,-35.534],[-72.4268,-35.5439],[-72.4368,-35.5412],[-72.4508,-35.5516],[-72.454,-35.5574],[-72.4677,-35.5557],[-72.4685,-35.5523],[-72.4779,-35.5482],[-72.4872,-35.5484],[-72.4966,-35.5527],[-72.4954,-35.5586],[-72.5033,-35.5565],[-72.5083,-35.5633],[-72.5159,-35.5609],[-72.5197,-35.5662],[-72.5194,-35.5744],[-72.5244,-35.5738],[-72.5269,-35.5779],[-72.5315,-35.5767],[-72.5329,-35.5724],[-72.5511,-35.5736],[-72.5604,-35.5686],[-72.569,-35.5742],[-72.5869,-35.5726],[-72.6075,-35.564],[-72.6174,-35.5662],[-72.6184,-35.5606],[-72.6126,-35.5536],[-72.5995,-35.5505],[-72.5846,-35.5376],[-72.5788,-35.5365],[-72.5595,-35.5133],[-72.5386,-35.5108],[-72.5304,-35.5053],[-72.5151,-35.488],[-72.5105,-35.4762],[-72.4978,-35.4716],[-72.4883,-35.4628],[-72.4876,-35.4345],[-72.4991,-35.3909],[-72.4796,-35.3768],[-72.4721,-35.3614],[-72.4583,-35.3598],[-72.4602,-35.3545],[-72.4567,-35.3584],[-72.4575,-35.3554],[-72.4556,-35.3575],[-72.4401,-35.3483],[-72.4359,-35.3299],[-72.4254,-35.3247],[-72.4169,-35.3157],[-72.4088,-35.3192],[-72.4034,-35.3011],[-72.4054,-35.2716],[-72.4051,-35.2667]]]}},{"type":"Feature","properties":{"cod_comuna":7303,"codregion":7,"Comuna":"Licantén","Provincia":"Curicó","Region":"Región del Maule"},"geometry":{"type":"Polygon","coordinates":[[[-72.1598,-34.8807],[-72.1569,-34.8786],[-72.1474,-34.8894],[-72.1354,-34.8869],[-72.1327,-34.8829],[-72.1277,-34.8924],[-72.1294,-34.8951],[-72.1242,-34.894],[-72.1255,-34.8975],[-72.1187,-34.8983],[-72.1113,-34.8945],[-72.0994,-34.9025],[-72.0987,-34.9092],[-72.0904,-34.907],[-72.0845,-34.922],[-72.0814,-34.9503],[-72.0776,-34.9548],[-72.0715,-34.9513],[-72.0659,-34.955],[-72.0665,-34.9619],[-72.06,-34.9667],[-72.0578,-34.9744],[-72.0405,-34.97],[-72.0336,-34.9589],[-72.0192,-34.9597],[-72.0172,-34.9558],[-71.9911,-34.9635],[-71.9749,-34.961],[-71.9628,-34.9657],[-71.9563,-34.959],[-71.936,-34.9537],[-71.9324,-34.9452],[-71.9186,-34.9493],[-71.91,-34.9466],[-71.9059,-34.938],[-71.8869,-34.9372],[-71.8659,-34.9433],[-71.8629,-34.94],[-71.8531,-34.9408],[-71.85,-34.9436],[-71.8511,-34.9498],[-71.8389,-34.9514],[-71.8312,-34.9698],[-71.8501,-34.9797],[-71.8536,-34.9897],[-71.8811,-34.9933],[-71.8899,-34.9978],[-71.9026,-34.9944],[-71.9091,-35.0049],[-71.9375,-34.9964],[-71.9564,-35.0035],[-71.9585,-35.0095],[-71.98,-35.0039],[-71.9959,-34.9819],[-72.0005,-34.9813],[-72.0295,-34.9969],[-72.045,-35.0158],[-72.0513,-35.0185],[-72.0564,-35.0309],[-72.0669,-35.039],[-72.0936,-35.0497],[-72.114,-35.037],[-72.1241,-35.0361],[-72.1304,-35.0546],[-72.1425,-35.0596],[-72.1539,-35.0584],[-72.1664,-35.049],[-72.1763,-35.0318],[-72.1869,-34.9638],[-72.1869,-34.9436],[-72.1822,-34.9355],[-72.1797,-34.895],[-72.1599,-34.8808],[-72.1598,-34.8807]]]}},{"type":"Feature","properties":{"cod_comuna":7309,"codregion":7,"Comuna":"Vichuquén","Provincia":"Curicó","Region":"Región del Maule"},"geometry":{"type":"Polygon","coordinates":[[[-72.0604,-34.6893],[-72.036,-34.6851],[-72.0362,-34.6965],[-72.0332,-34.7004],[-72.0209,-34.6986],[-72.005,-34.705],[-72.0018,-34.7132],[-71.9945,-34.7165],[-71.9987,-34.728],[-71.9946,-34.7324],[-71.9973,-34.7405],[-71.9884,-34.7439],[-71.9763,-34.7544],[-71.9653,-34.7501],[-71.9532,-34.7573],[-71.9529,-34.7641],[-71.9426,-34.7694],[-71.9447,-34.7886],[-71.9259,-34.8073],[-71.9127,-34.8155],[-71.8927,-34.8147],[-71.8852,-34.818],[-71.868,-34.8183],[-71.8732,-34.8226],[-71.8819,-34.8463],[-71.8842,-34.8574],[-71.8813,-34.861],[-71.8928,-34.8656],[-71.8942,-34.8714],[-71.913,-34.8683],[-71.9376,-34.856],[-71.9399,-34.8497],[-71.9444,-34.8551],[-71.9461,-34.867],[-71.9424,-34.8762],[-71.9449,-34.88],[-71.9411,-34.8856],[-71.9482,-34.8904],[-71.9474,-34.8977],[-71.9379,-34.916],[-71.9372,-34.9252],[-71.93,-34.9264],[-71.9262,-34.9358],[-71.9205,-34.9404],[-71.9189,-34.9493],[-71.9317,-34.9449],[-71.936,-34.9537],[-71.9552,-34.9585],[-71.9658,-34.9661],[-71.9745,-34.961],[-71.9911,-34.9635],[-72.0172,-34.9558],[-72.0192,-34.9597],[-72.0336,-34.9589],[-72.0405,-34.97],[-72.0578,-34.9744],[-72.06,-34.9667],[-72.0665,-34.9619],[-72.0659,-34.955],[-72.0715,-34.9513],[-72.0776,-34.9548],[-72.0814,-34.9503],[-72.0845,-34.922],[-72.0904,-34.907],[-72.0987,-34.9092],[-72.0994,-34.9025],[-72.1113,-34.8945],[-72.1187,-34.8983],[-72.1255,-34.8975],[-72.1242,-34.894],[-72.1294,-34.8951],[-72.1277,-34.8924],[-72.1332,-34.8827],[-72.1354,-34.8869],[-72.1482,-34.8892],[-72.1578,-34.878],[-72.1466,-34.8571],[-72.1445,-34.8224],[-72.1382,-34.8195],[-72.1262,-34.7945],[-72.1233,-34.7949],[-72.1067,-34.7792],[-72.0912,-34.7552],[-72.0826,-34.7535],[-72.0766,-34.7455],[-72.0701,-34.7296],[-72.0658,-34.6961],[-72.0605,-34.6893],[-72.0604,-34.6893]]]}},{"type":"Feature","properties":{"cod_comuna":7201,"codregion":7,"Comuna":"Cauquenes","Provincia":"Cauquenes","Region":"Región del Maule"},"geometry":{"type":"Polygon","coordinates":[[[-72.3208,-35.678],[-72.3147,-35.6909],[-72.3097,-35.694],[-72.2946,-35.6974],[-72.2784,-35.6928],[-72.2715,-35.6943],[-72.2665,-35.7026],[-72.2543,-35.7126],[-72.2536,-35.7225],[-72.24,-35.7355],[-72.2363,-35.7301],[-72.2241,-35.7246],[-72.2047,-35.722],[-72.2019,-35.7167],[-72.1859,-35.7198],[-72.1498,-35.7107],[-72.139,-35.6995],[-72.1307,-35.7011],[-72.113,-35.7177],[-72.1031,-35.7198],[-72.0831,-35.7184],[-72.0735,-35.7116],[-72.0659,-35.7117],[-72.0594,-35.7214],[-72.069,-35.739],[-72.0642,-35.7458],[-72.0667,-35.7597],[-72.0501,-35.764],[-72.0461,-35.7707],[-72.0405,-35.7719],[-72.0429,-35.7809],[-72.0309,-35.785],[-72.0395,-35.7926],[-72.0276,-35.7974],[-72.0272,-35.8027],[-72.0123,-35.8115],[-72.0005,-35.8068],[-71.9992,-35.8154],[-71.9814,-35.8186],[-71.9762,-35.8228],[-71.9892,-35.8273],[-71.9827,-35.8319],[-71.982,-35.8361],[-71.9972,-35.8425],[-72.0039,-35.8423],[-72.0164,-35.8335],[-72.021,-35.8341],[-72.0242,-35.839],[-72.0231,-35.8468],[-72.0104,-35.8534],[-72.01,-35.8562],[-72.0146,-35.8601],[-72.0333,-35.8626],[-72.0387,-35.8728],[-72.0361,-35.8812],[-72.0229,-35.8873],[-72.0234,-35.8986],[-72.0173,-35.9073],[-72.0217,-35.9143],[-72.0306,-35.9177],[-72.0321,-35.928],[-72.0462,-35.9357],[-72.0494,-35.9501],[-72.0646,-35.9679],[-72.0552,-35.9796],[-72.0687,-35.988],[-72.0583,-35.9973],[-72.0759,-36.0262],[-72.075,-36.0367],[-72.0689,-36.0446],[-72.0749,-36.0506],[-72.0811,-36.0708],[-72.0839,-36.0747],[-72.0938,-36.0733],[-72.0987,-36.081],[-72.1046,-36.0791],[-72.1065,-36.0816],[-72.1048,-36.107],[-72.0966,-36.117],[-72.1028,-36.1223],[-72.1042,-36.1355],[-72.1029,-36.1441],[-72.0978,-36.1467],[-72.0986,-36.1561],[-72.1058,-36.169],[-72.1139,-36.1741],[-72.1219,-36.1869],[-72.1313,-36.1917],[-72.1281,-36.2007],[-72.1317,-36.2035],[-72.1308,-36.2173],[-72.1364,-36.2212],[-72.135,-36.2292],[-72.1424,-36.2391],[-72.1391,-36.2459],[-72.1528,-36.2476],[-72.1521,-36.2418],[-72.1565,-36.2413],[-72.1543,-36.2353],[-72.1833,-36.2283],[-72.191,-36.2197],[-72.2111,-36.2153],[-72.2109,-36.2109],[-72.2162,-36.2101],[-72.2169,-36.2154],[-72.2235,-36.2153],[-72.2205,-36.2079],[-72.2373,-36.207],[-72.2776,-36.2615],[-72.2826,-36.2564],[-72.2958,-36.2532],[-72.2983,-36.2472],[-72.3156,-36.2327],[-72.3453,-36.2368],[-72.3511,-36.2451],[-72.3619,-36.252],[-72.3725,-36.2572],[-72.3802,-36.2542],[-72.3801,-36.2512],[-72.3894,-36.2484],[-72.3863,-36.245],[-72.3911,-36.2341],[-72.4125,-36.2231],[-72.4122,-36.2078],[-72.3601,-36.2148],[-72.3378,-36.2055],[-72.3384,-36.1744],[-72.3449,-36.1735],[-72.3521,-36.1677],[-72.3587,-36.1574],[-72.3709,-36.164],[-72.3736,-36.17],[-72.3818,-36.17],[-72.3902,-36.1753],[-72.4054,-36.1756],[-72.4215,-36.1699],[-72.4264,-36.1572],[-72.4435,-36.156],[-72.4528,-36.1501],[-72.4678,-36.148],[-72.4779,-36.1528],[-72.5013,-36.1436],[-72.4983,-36.1351],[-72.4928,-36.1353],[-72.4947,-36.1289],[-72.4885,-36.1256],[-72.4928,-36.1071],[-72.5007,-36.1002],[-72.497,-36.0945],[-72.5014,-36.0857],[-72.4927,-36.086],[-72.4873,-36.0799],[-72.492,-36.0728],[-72.5008,-36.0733],[-72.5121,-36.0809],[-72.5186,-36.0801],[-72.5306,-36.0695],[-72.5368,-36.0698],[-72.5416,-36.0762],[-72.548,-36.0779],[-72.5719,-36.074],[-72.5832,-36.0779],[-72.5906,-36.0721],[-72.5885,-36.0653],[-72.6023,-36.0599],[-72.6011,-36.0568],[-72.6141,-36.0529],[-72.62,-36.0555],[-72.6239,-36.0462],[-72.6199,-36.036],[-72.6241,-36.0353],[-72.6237,-36.0319],[-72.6334,-36.0313],[-72.6306,-36.0253],[-72.6354,-36.0208],[-72.6402,-36.0209],[-72.6445,-36.0151],[-72.6468,-36.0167],[-72.6471,-36.0122],[-72.6437,-36.0115],[-72.6463,-36.009],[-72.6423,-36.0068],[-72.6479,-36.0034],[-72.6453,-36.0],[-72.648,-35.9939],[-72.6418,-35.986],[-72.6366,-35.9847],[-72.6299,-35.9676],[-72.6392,-35.9575],[-72.6338,-35.9517],[-72.626,-35.9544],[-72.6027,-35.94],[-72.5788,-35.9595],[-72.5626,-35.9593],[-72.5527,-35.9494],[-72.5299,-35.9395],[-72.5266,-35.9234],[-72.5199,-35.9243],[-72.4988,-35.9177],[-72.4921,-35.9205],[-72.4863,-35.9188],[-72.4793,-35.9236],[-72.4845,-35.9307],[-72.4707,-35.9406],[-72.4602,-35.9439],[-72.4551,-35.9403],[-72.4481,-35.927],[-72.4271,-35.9073],[-72.4491,-35.889],[-72.4475,-35.8802],[-72.4425,-35.877],[-72.4495,-35.8683],[-72.4568,-35.8655],[-72.4668,-35.8478],[-72.4636,-35.8454],[-72.4521,-35.8474],[-72.4453,-35.8375],[-72.4285,-35.834],[-72.4187,-35.8246],[-72.3911,-35.8215],[-72.3895,-35.8144],[-72.3758,-35.802],[-72.375,-35.7935],[-72.3688,-35.7924],[-72.3713,-35.7897],[-72.3656,-35.7835],[-72.3602,-35.7599],[-72.3413,-35.7493],[-72.3447,-35.7415],[-72.3414,-35.7371],[-72.343,-35.733],[-72.3399,-35.7313],[-72.3424,-35.723],[-72.3322,-35.7083],[-72.3302,-35.7002],[-72.3348,-35.6967],[-72.324,-35.6805],[-72.3233,-35.6745],[-72.3209,-35.6777],[-72.3208,-35.678]]]}},{"type":"Feature","properties":{"cod_comuna":7108,"codregion":7,"Comuna":"Río Claro","Provincia":"Talca","Region":"Región del Maule"},"geometry":{"type":"Polygon","coordinates":[[[-71.3845,-35.2831],[-71.3638,-35.2738],[-71.3618,-35.2658],[-71.3809,-35.268],[-71.3807,-35.2613],[-71.3907,-35.259],[-71.4612,-35.2596],[-71.4623,-35.2541],[-71.454,-35.2479],[-71.4317,-35.244],[-71.4395,-35.2358],[-71.4371,-35.2278],[-71.4447,-35.2241],[-71.4441,-35.215],[-71.4381,-35.2169],[-71.4219,-35.2106],[-71.4152,-35.2033],[-71.4087,-35.203],[-71.4041,-35.1936],[-71.3986,-35.1916],[-71.3953,-35.1854],[-71.3843,-35.1804],[-71.381,-35.1747],[-71.3839,-35.1711],[-71.3768,-35.1638],[-71.3777,-35.1604],[-71.3691,-35.1605],[-71.3717,-35.157],[-71.3601,-35.1416],[-71.3423,-35.1397],[-71.3363,-35.131],[-71.3313,-35.1342],[-71.3248,-35.1312],[-71.3143,-35.1368],[-71.3089,-35.1355],[-71.2969,-35.1487],[-71.2771,-35.1561],[-71.2747,-35.1604],[-71.2616,-35.1638],[-71.2585,-35.1739],[-71.226,-35.1831],[-71.2163,-35.1945],[-71.2107,-35.2119],[-71.2043,-35.2207],[-71.1963,-35.2239],[-71.1774,-35.2409],[-71.1742,-35.248],[-71.1615,-35.2536],[-71.1632,-35.2587],[-71.1591,-35.2653],[-71.1457,-35.2751],[-71.1441,-35.2815],[-71.1348,-35.2919],[-71.1279,-35.2934],[-71.1176,-35.3025],[-71.1138,-35.3158],[-71.1149,-35.33],[-71.1104,-35.3356],[-71.1147,-35.3497],[-71.1124,-35.3716],[-71.1015,-35.3808],[-71.1019,-35.385],[-71.0941,-35.3891],[-71.0879,-35.4017],[-71.0678,-35.4116],[-71.0553,-35.4136],[-71.0559,-35.4223],[-71.0378,-35.4517],[-71.0499,-35.4552],[-71.0555,-35.449],[-71.0566,-35.4427],[-71.0719,-35.4369],[-71.0864,-35.4241],[-71.0932,-35.4099],[-71.1213,-35.3801],[-71.1273,-35.3837],[-71.128,-35.3909],[-71.1406,-35.3866],[-71.1521,-35.3876],[-71.1493,-35.3774],[-71.1449,-35.3733],[-71.1491,-35.3645],[-71.1627,-35.3612],[-71.1825,-35.3459],[-71.1828,-35.3407],[-71.1887,-35.3357],[-71.1988,-35.3343],[-71.2115,-35.3371],[-71.2524,-35.3265],[-71.2578,-35.312],[-71.2798,-35.3058],[-71.3037,-35.3204],[-71.3249,-35.3227],[-71.3441,-35.3186],[-71.3711,-35.3239],[-71.3816,-35.3205],[-71.3776,-35.3167],[-71.3804,-35.3049],[-71.3907,-35.3054],[-71.3846,-35.2834],[-71.3845,-35.2831]]]}},{"type":"Feature","properties":{"cod_comuna":7106,"codregion":7,"Comuna":"Pelarco","Provincia":"Talca","Region":"Región del Maule"},"geometry":{"type":"Polygon","coordinates":[[[-71.3822,-35.3208],[-71.3711,-35.3239],[-71.3441,-35.3186],[-71.3172,-35.3224],[-71.3037,-35.3204],[-71.2798,-35.3058],[-71.2716,-35.3073],[-71.2578,-35.312],[-71.2524,-35.3265],[-71.2115,-35.3371],[-71.1988,-35.3343],[-71.1887,-35.3357],[-71.1828,-35.3407],[-71.1825,-35.3459],[-71.1627,-35.3612],[-71.1491,-35.3645],[-71.1449,-35.3735],[-71.1569,-35.3919],[-71.1921,-35.3721],[-71.2174,-35.3802],[-71.2253,-35.3762],[-71.2353,-35.3783],[-71.253,-35.3701],[-71.2548,-35.3787],[-71.2486,-35.391],[-71.251,-35.4032],[-71.2482,-35.407],[-71.2483,-35.4309],[-71.251,-35.4311],[-71.2495,-35.4339],[-71.252,-35.4358],[-71.2577,-35.4364],[-71.272,-35.4692],[-71.2926,-35.4629],[-71.2938,-35.4564],[-71.3003,-35.4577],[-71.311,-35.4545],[-71.3116,-35.4405],[-71.318,-35.4363],[-71.3244,-35.4403],[-71.3893,-35.4446],[-71.4038,-35.4388],[-71.411,-35.4313],[-71.4236,-35.4357],[-71.4403,-35.4259],[-71.4488,-35.428],[-71.4712,-35.4202],[-71.488,-35.4248],[-71.5183,-35.413],[-71.543,-35.4199],[-71.5591,-35.4098],[-71.5656,-35.4131],[-71.5612,-35.4093],[-71.5542,-35.4093],[-71.5516,-35.3957],[-71.5483,-35.3942],[-71.5436,-35.359],[-71.5249,-35.365],[-71.517,-35.3644],[-71.5138,-35.3602],[-71.4972,-35.3634],[-71.4967,-35.3688],[-71.4935,-35.3702],[-71.4818,-35.3673],[-71.4672,-35.3722],[-71.4543,-35.3621],[-71.4433,-35.3675],[-71.4341,-35.3681],[-71.428,-35.3631],[-71.4281,-35.3565],[-71.4152,-35.3463],[-71.4165,-35.3421],[-71.409,-35.3366],[-71.4092,-35.3303],[-71.4016,-35.3297],[-71.3915,-35.3218],[-71.3825,-35.3211],[-71.3822,-35.3208]]]}},{"type":"Feature","properties":{"cod_comuna":7406,"codregion":7,"Comuna":"San Javier","Provincia":"Linares","Region":"Región del Maule"},"geometry":{"type":"Polygon","coordinates":[[[-71.6538,-35.5608],[-71.6364,-35.5718],[-71.6255,-35.5713],[-71.616,-35.5803],[-71.603,-35.5847],[-71.5977,-35.5828],[-71.5829,-35.5849],[-71.5967,-35.6112],[-71.5936,-35.6127],[-71.6,-35.6238],[-71.5965,-35.6253],[-71.5966,-35.6337],[-71.5789,-35.6523],[-71.5972,-35.6569],[-71.6102,-35.6445],[-71.6364,-35.6459],[-71.6553,-35.627],[-71.701,-35.6228],[-71.748,-35.6095],[-71.7651,-35.6153],[-71.7703,-35.6244],[-71.7581,-35.6316],[-71.7488,-35.6448],[-71.7511,-35.6544],[-71.7614,-35.6533],[-71.7672,-35.6829],[-71.7733,-35.6909],[-71.7633,-35.7106],[-71.7746,-35.7208],[-71.7727,-35.7386],[-71.7794,-35.757],[-71.7922,-35.7629],[-71.7959,-35.77],[-71.7977,-35.7846],[-71.7915,-35.7899],[-71.7911,-35.7958],[-71.7965,-35.8011],[-71.8168,-35.803],[-71.8215,-35.8086],[-71.825,-35.8277],[-71.8184,-35.8404],[-71.8085,-35.8396],[-71.8075,-35.8431],[-71.8365,-35.8571],[-71.871,-35.8523],[-71.8803,-35.8459],[-71.8963,-35.8511],[-71.8993,-35.8488],[-71.8956,-35.8354],[-71.8986,-35.8317],[-71.9036,-35.8315],[-71.9077,-35.8363],[-71.9218,-35.8415],[-71.9273,-35.8394],[-71.9473,-35.8189],[-71.9578,-35.8192],[-71.9613,-35.8247],[-71.9599,-35.8284],[-71.9628,-35.8287],[-71.9793,-35.8193],[-71.9992,-35.8154],[-72.0005,-35.8068],[-72.0123,-35.8115],[-72.0272,-35.8027],[-72.0276,-35.7974],[-72.0395,-35.7926],[-72.0309,-35.785],[-72.0429,-35.7809],[-72.0405,-35.7719],[-72.0461,-35.7707],[-72.0501,-35.764],[-72.0667,-35.7597],[-72.0642,-35.7458],[-72.069,-35.739],[-72.0648,-35.7342],[-72.0672,-35.7321],[-72.0597,-35.7236],[-72.0634,-35.7122],[-72.0591,-35.7088],[-72.0606,-35.7053],[-72.0489,-35.7022],[-72.0427,-35.6957],[-72.0374,-35.672],[-72.0321,-35.6712],[-72.0844,-35.6726],[-72.0787,-35.6657],[-72.0846,-35.6587],[-72.0859,-35.6494],[-72.0912,-35.6458],[-72.1261,-35.6459],[-72.1389,-35.666],[-72.1384,-35.6586],[-72.1504,-35.6348],[-72.1649,-35.6313],[-72.1877,-35.6153],[-72.1772,-35.6053],[-72.17,-35.5856],[-72.1793,-35.5755],[-72.1875,-35.5772],[-72.1253,-35.4881],[-72.1287,-35.4757],[-72.1075,-35.4393],[-72.0935,-35.4422],[-72.0912,-35.4329],[-72.0748,-35.4178],[-72.0684,-35.4185],[-72.0672,-35.4245],[-72.0585,-35.4328],[-72.0502,-35.4319],[-72.0397,-35.4359],[-72.0392,-35.44],[-72.0304,-35.4484],[-72.0198,-35.4466],[-72.0116,-35.4513],[-71.9989,-35.4502],[-71.9889,-35.4612],[-71.9753,-35.4624],[-71.9668,-35.4704],[-71.9427,-35.4719],[-71.925,-35.4633],[-71.9051,-35.4706],[-71.8853,-35.4631],[-71.8524,-35.4974],[-71.8203,-35.5038],[-71.8123,-35.5119],[-71.7884,-35.521],[-71.7808,-35.5395],[-71.7677,-35.548],[-71.7677,-35.5621],[-71.7535,-35.5733],[-71.743,-35.5728],[-71.7382,-35.5633],[-71.7334,-35.5608],[-71.7145,-35.5638],[-71.7063,-35.556],[-71.6929,-35.5501],[-71.6663,-35.5558],[-71.6538,-35.5608]]]}},{"type":"Feature","properties":{"cod_comuna":7407,"codregion":7,"Comuna":"Villa Alegre","Provincia":"Linares","Region":"Región del Maule"},"geometry":{"type":"Polygon","coordinates":[[[-71.6271,-35.6453],[-71.6102,-35.6445],[-71.5972,-35.6569],[-71.5791,-35.6516],[-71.5739,-35.657],[-71.5716,-35.671],[-71.5745,-35.6885],[-71.6009,-35.6847],[-71.6081,-35.6928],[-71.6209,-35.692],[-71.6289,-35.7099],[-71.6377,-35.7155],[-71.64,-35.7333],[-71.6446,-35.7358],[-71.6417,-35.7405],[-71.6459,-35.7447],[-71.6358,-35.7506],[-71.6388,-35.7538],[-71.6365,-35.7585],[-71.6499,-35.7645],[-71.6603,-35.779],[-71.6642,-35.7749],[-71.6814,-35.7704],[-71.6929,-35.7743],[-71.6993,-35.7729],[-71.6988,-35.7698],[-71.705,-35.7714],[-71.7111,-35.7647],[-71.7099,-35.7615],[-71.7173,-35.7589],[-71.7094,-35.7501],[-71.7216,-35.7358],[-71.7274,-35.7351],[-71.7314,-35.7268],[-71.7298,-35.7145],[-71.7357,-35.7097],[-71.735,-35.7051],[-71.7498,-35.7055],[-71.7554,-35.7104],[-71.7646,-35.7073],[-71.7731,-35.6926],[-71.7672,-35.6829],[-71.7614,-35.6533],[-71.7511,-35.6544],[-71.7488,-35.6456],[-71.7581,-35.6316],[-71.7703,-35.6244],[-71.7641,-35.6147],[-71.748,-35.6095],[-71.701,-35.6228],[-71.6553,-35.627],[-71.6364,-35.6459],[-71.6271,-35.6453]]]}},{"type":"Feature","properties":{"cod_comuna":7408,"codregion":7,"Comuna":"Yerbas Buenas","Provincia":"Linares","Region":"Región del Maule"},"geometry":{"type":"Polygon","coordinates":[[[-71.5757,-35.586],[-71.548,-35.593],[-71.5355,-35.601],[-71.5047,-35.6086],[-71.4803,-35.6022],[-71.4643,-35.6038],[-71.4605,-35.6076],[-71.4455,-35.6094],[-71.4424,-35.6135],[-71.434,-35.6134],[-71.4284,-35.6089],[-71.4288,-35.6171],[-71.4416,-35.6483],[-71.4857,-35.6965],[-71.4791,-35.6984],[-71.4943,-35.7505],[-71.5127,-35.7663],[-71.5181,-35.7832],[-71.5243,-35.786],[-71.527,-35.7822],[-71.5348,-35.7814],[-71.5439,-35.7855],[-71.5456,-35.7832],[-71.5426,-35.78],[-71.5512,-35.7768],[-71.5781,-35.7814],[-71.5852,-35.7761],[-71.6061,-35.7778],[-71.6143,-35.783],[-71.6384,-35.781],[-71.6453,-35.7865],[-71.6518,-35.7816],[-71.6649,-35.7838],[-71.6639,-35.7754],[-71.6603,-35.779],[-71.6499,-35.7645],[-71.6365,-35.7585],[-71.6388,-35.7538],[-71.6358,-35.7506],[-71.6459,-35.7447],[-71.6417,-35.7405],[-71.6446,-35.7358],[-71.64,-35.7333],[-71.6377,-35.7155],[-71.6289,-35.7099],[-71.6209,-35.692],[-71.6081,-35.6928],[-71.6009,-35.6847],[-71.5745,-35.6885],[-71.5716,-35.671],[-71.5739,-35.657],[-71.5966,-35.6337],[-71.5965,-35.6253],[-71.6,-35.6238],[-71.5936,-35.6127],[-71.5967,-35.6112],[-71.5823,-35.5839],[-71.5779,-35.5853],[-71.5757,-35.586]]]}},{"type":"Feature","properties":{"cod_comuna":7105,"codregion":7,"Comuna":"Maule","Provincia":"Talca","Region":"Región del Maule"},"geometry":{"type":"Polygon","coordinates":[[[-71.7054,-35.4467],[-71.6982,-35.4511],[-71.6591,-35.451],[-71.6447,-35.4562],[-71.6405,-35.4605],[-71.6429,-35.4672],[-71.6349,-35.484],[-71.5823,-35.528],[-71.5686,-35.5309],[-71.5875,-35.5717],[-71.5702,-35.5791],[-71.5736,-35.5865],[-71.5977,-35.5828],[-71.603,-35.5847],[-71.616,-35.5803],[-71.6255,-35.5713],[-71.6364,-35.5718],[-71.6507,-35.5621],[-71.69,-35.5499],[-71.7063,-35.556],[-71.7145,-35.5638],[-71.7358,-35.5617],[-71.743,-35.5728],[-71.7535,-35.5733],[-71.7677,-35.5621],[-71.7677,-35.548],[-71.7808,-35.5395],[-71.7884,-35.521],[-71.8123,-35.5119],[-71.8203,-35.5038],[-71.8524,-35.4974],[-71.8841,-35.464],[-71.8812,-35.465],[-71.8797,-35.4609],[-71.8734,-35.4582],[-71.8529,-35.4593],[-71.8462,-35.4563],[-71.8411,-35.4599],[-71.8223,-35.4601],[-71.8062,-35.4538],[-71.793,-35.4564],[-71.7832,-35.4627],[-71.7663,-35.4562],[-71.7463,-35.4651],[-71.7391,-35.4629],[-71.7313,-35.4511],[-71.7058,-35.4463],[-71.7054,-35.4467]]]}},{"type":"Feature","properties":{"cod_comuna":7110,"codregion":7,"Comuna":"San Rafael","Provincia":"Talca","Region":"Región del Maule"},"geometry":{"type":"Polygon","coordinates":[[[-71.4434,-35.2192],[-71.4445,-35.2245],[-71.4371,-35.2278],[-71.4395,-35.2358],[-71.4317,-35.244],[-71.454,-35.2479],[-71.4623,-35.2541],[-71.4612,-35.2596],[-71.3907,-35.259],[-71.3807,-35.2613],[-71.3809,-35.268],[-71.3618,-35.2658],[-71.3638,-35.2738],[-71.3857,-35.2848],[-71.3907,-35.3054],[-71.3804,-35.3049],[-71.3776,-35.3167],[-71.3845,-35.322],[-71.3915,-35.3218],[-71.4022,-35.3299],[-71.4092,-35.3303],[-71.409,-35.3366],[-71.4165,-35.3421],[-71.4156,-35.3468],[-71.4281,-35.3565],[-71.428,-35.3631],[-71.4315,-35.3666],[-71.4433,-35.3675],[-71.4543,-35.3621],[-71.4672,-35.3722],[-71.4818,-35.3673],[-71.4935,-35.3702],[-71.4967,-35.3688],[-71.4972,-35.3634],[-71.5138,-35.3602],[-71.517,-35.3644],[-71.5249,-35.365],[-71.5463,-35.3581],[-71.5495,-35.3642],[-71.5546,-35.3653],[-71.5551,-35.3625],[-71.5681,-35.3619],[-71.5734,-35.3528],[-71.5862,-35.3555],[-71.5924,-35.3534],[-71.5941,-35.356],[-71.6002,-35.3527],[-71.6082,-35.3581],[-71.6213,-35.3554],[-71.6251,-35.3458],[-71.6403,-35.3351],[-71.6426,-35.3272],[-71.6381,-35.3233],[-71.6301,-35.3004],[-71.6244,-35.3006],[-71.6037,-35.2875],[-71.59,-35.2887],[-71.5867,-35.2938],[-71.5731,-35.2932],[-71.5685,-35.2803],[-71.5732,-35.277],[-71.5662,-35.2645],[-71.5685,-35.2554],[-71.5618,-35.2474],[-71.5565,-35.2268],[-71.5158,-35.2448],[-71.5153,-35.2422],[-71.5073,-35.2452],[-71.5084,-35.2406],[-71.4996,-35.2414],[-71.5005,-35.2362],[-71.4936,-35.2354],[-71.4872,-35.2287],[-71.483,-35.2296],[-71.4822,-35.2247],[-71.4752,-35.22],[-71.4706,-35.2217],[-71.4704,-35.2183],[-71.464,-35.219],[-71.4463,-35.2132],[-71.4435,-35.2187],[-71.4434,-35.2192]]]}},{"type":"Feature","properties":{"cod_comuna":7307,"codregion":7,"Comuna":"Sagrada Familia","Provincia":"Curicó","Region":"Región del Maule"},"geometry":{"type":"Polygon","coordinates":[[[-71.3081,-34.985],[-71.2896,-34.9909],[-71.2781,-35.0019],[-71.2785,-35.0067],[-71.2734,-35.0117],[-71.2487,-35.0278],[-71.2565,-35.0384],[-71.2843,-35.0517],[-71.3036,-35.0758],[-71.3138,-35.0656],[-71.3181,-35.055],[-71.3284,-35.0727],[-71.3349,-35.0777],[-71.3409,-35.0725],[-71.3486,-35.0741],[-71.3556,-35.0701],[-71.374,-35.0704],[-71.3785,-35.0729],[-71.3779,-35.0783],[-71.382,-35.0817],[-71.3941,-35.0788],[-71.4018,-35.0821],[-71.4159,-35.121],[-71.4252,-35.1354],[-71.4236,-35.1384],[-71.4333,-35.1396],[-71.4372,-35.1433],[-71.4391,-35.153],[-71.4561,-35.1651],[-71.4577,-35.1717],[-71.4506,-35.1793],[-71.4661,-35.1836],[-71.4992,-35.2116],[-71.5012,-35.217],[-71.4932,-35.2251],[-71.5008,-35.2367],[-71.4996,-35.2414],[-71.5062,-35.2399],[-71.5094,-35.2422],[-71.507,-35.2451],[-71.5153,-35.2422],[-71.5158,-35.2448],[-71.5565,-35.2268],[-71.5635,-35.221],[-71.5661,-35.2124],[-71.5761,-35.2112],[-71.5772,-35.2058],[-71.5907,-35.2137],[-71.5988,-35.2243],[-71.629,-35.2282],[-71.629,-35.2206],[-71.6386,-35.2139],[-71.6511,-35.216],[-71.6524,-35.213],[-71.6645,-35.21],[-71.67,-35.2036],[-71.6729,-35.1728],[-71.6792,-35.1668],[-71.6789,-35.1616],[-71.6716,-35.1561],[-71.6709,-35.1488],[-71.6852,-35.1275],[-71.6868,-35.1184],[-71.6844,-35.1101],[-71.6976,-35.1051],[-71.7016,-35.0995],[-71.6839,-35.1049],[-71.6719,-35.1017],[-71.6614,-35.094],[-71.6225,-35.0848],[-71.6246,-35.0765],[-71.6225,-35.0735],[-71.6145,-35.0727],[-71.5793,-35.0458],[-71.5727,-35.0493],[-71.5572,-35.0502],[-71.5371,-35.0405],[-71.5158,-35.0452],[-71.5013,-35.0428],[-71.493,-35.0323],[-71.469,-35.0245],[-71.4503,-35.0011],[-71.4246,-34.9883],[-71.37,-34.9823],[-71.3509,-34.9886],[-71.3269,-34.9828],[-71.3179,-34.9848],[-71.3131,-34.9809],[-71.3087,-34.9846],[-71.3081,-34.985]]]}},{"type":"Feature","properties":{"cod_comuna":7405,"codregion":7,"Comuna":"Retiro","Provincia":"Linares","Region":"Región del Maule"},"geometry":{"type":"Polygon","coordinates":[[[-71.9365,-35.8289],[-71.9273,-35.8394],[-71.9209,-35.8416],[-71.9077,-35.8363],[-71.9036,-35.8315],[-71.8976,-35.8321],[-71.8957,-35.8364],[-71.8993,-35.8488],[-71.8963,-35.8511],[-71.8803,-35.8459],[-71.871,-35.8523],[-71.835,-35.8568],[-71.8082,-35.8444],[-71.8082,-35.8397],[-71.8184,-35.8404],[-71.8223,-35.8306],[-71.8129,-35.8284],[-71.8062,-35.8336],[-71.7943,-35.8332],[-71.7869,-35.8511],[-71.7733,-35.8489],[-71.7715,-35.8678],[-71.7656,-35.8715],[-71.7672,-35.8821],[-71.7645,-35.8912],[-71.7575,-35.8929],[-71.7546,-35.8997],[-71.7411,-35.9005],[-71.733,-35.9079],[-71.7332,-35.9141],[-71.7258,-35.9156],[-71.7324,-35.9335],[-71.7282,-35.9463],[-71.7224,-35.9517],[-71.7243,-35.9563],[-71.7208,-35.9689],[-71.7259,-35.9715],[-71.7242,-35.9773],[-71.7296,-35.9855],[-71.7305,-35.9971],[-71.724,-36.0031],[-71.7193,-36.0142],[-71.7199,-36.0248],[-71.715,-36.0273],[-71.7184,-36.0395],[-71.7062,-36.045],[-71.7081,-36.056],[-71.6961,-36.0683],[-71.69,-36.0688],[-71.6886,-36.0809],[-71.6826,-36.0901],[-71.6793,-36.1037],[-71.6448,-36.1327],[-71.6264,-36.1391],[-71.6169,-36.1492],[-71.6071,-36.1496],[-71.6063,-36.1569],[-71.5882,-36.1702],[-71.574,-36.184],[-71.5741,-36.1879],[-71.5681,-36.1903],[-71.564,-36.1961],[-71.5897,-36.2032],[-71.5884,-36.2071],[-71.584,-36.2061],[-71.5751,-36.2112],[-71.5872,-36.2172],[-71.5941,-36.2065],[-71.6055,-36.2182],[-71.62,-36.2132],[-71.6682,-36.2139],[-71.6752,-36.2055],[-71.7055,-36.2036],[-71.7115,-36.2005],[-71.7215,-36.202],[-71.7544,-36.1756],[-71.7641,-36.1759],[-71.7739,-36.172],[-71.7757,-36.17],[-71.7683,-36.1534],[-71.7748,-36.1525],[-71.78,-36.1432],[-71.7988,-36.1249],[-71.8079,-36.107],[-71.8127,-36.0825],[-71.8189,-36.0774],[-71.829,-36.0767],[-71.8456,-36.0682],[-71.8565,-36.0473],[-71.8685,-36.0343],[-71.8689,-36.0235],[-71.8721,-36.0223],[-71.8731,-36.0162],[-71.8714,-36.006],[-71.9256,-36.0281],[-71.922,-36.0294],[-71.9147,-36.0468],[-71.9104,-36.0496],[-71.9087,-36.0531],[-71.911,-36.0563],[-71.8902,-36.0625],[-71.9026,-36.0705],[-71.8994,-36.0725],[-71.9207,-36.0921],[-71.931,-36.0888],[-71.9335,-36.0823],[-71.944,-36.0826],[-71.9527,-36.077],[-71.9573,-36.0789],[-71.9641,-36.0765],[-71.9712,-36.0693],[-71.9742,-36.0597],[-71.9811,-36.054],[-71.9937,-36.0522],[-71.9928,-36.0454],[-71.9979,-36.0328],[-71.9944,-36.0198],[-71.9991,-36.0171],[-71.9992,-35.9994],[-72.003,-35.9965],[-72.0002,-35.9889],[-72.0028,-35.9827],[-72.0068,-35.982],[-72.0061,-35.9764],[-72.0186,-35.9716],[-72.0169,-35.9645],[-72.0077,-35.9595],[-72.0112,-35.9511],[-72.0094,-35.9481],[-72.025,-35.9329],[-72.0194,-35.918],[-72.0241,-35.9151],[-72.0173,-35.9054],[-72.0234,-35.8986],[-72.0229,-35.8873],[-72.0361,-35.8812],[-72.039,-35.8737],[-72.0333,-35.8626],[-72.0146,-35.8601],[-72.01,-35.8562],[-72.0104,-35.8534],[-72.0231,-35.8468],[-72.0242,-35.839],[-72.021,-35.8341],[-72.0164,-35.8335],[-72.0039,-35.8423],[-71.9972,-35.8425],[-71.9815,-35.8354],[-71.9888,-35.8268],[-71.9775,-35.8225],[-71.9603,-35.8286],[-71.9613,-35.8247],[-71.955,-35.8182],[-71.9465,-35.8193],[-71.9383,-35.8275],[-71.9365,-35.8289]]]}},{"type":"Feature","properties":{"cod_comuna":7301,"codregion":7,"Comuna":"Curicó","Provincia":"Curicó","Region":"Región del Maule"},"geometry":{"type":"Polygon","coordinates":[[[-70.3882,-35.5165],[-70.3946,-35.5184],[-70.3984,-35.5254],[-70.412,-35.5258],[-70.4137,-35.5289],[-70.4048,-35.546],[-70.4103,-35.5491],[-70.4076,-35.5565],[-70.4099,-35.5601],[-70.425,-35.5598],[-70.43,-35.5486],[-70.4304,-35.544],[-70.4261,-35.5405],[-70.4305,-35.5374],[-70.4278,-35.5332],[-70.4346,-35.5257],[-70.4314,-35.5212],[-70.435,-35.5077],[-70.4481,-35.4931],[-70.4628,-35.4871],[-70.4637,-35.4829],[-70.4865,-35.4686],[-70.4895,-35.4694],[-70.4981,-35.4619],[-70.5014,-35.4457],[-70.5091,-35.4374],[-70.5088,-35.4315],[-70.515,-35.4196],[-70.5351,-35.4015],[-70.541,-35.3904],[-70.5709,-35.3732],[-70.5752,-35.3789],[-70.6027,-35.3768],[-70.6264,-35.3547],[-70.653,-35.3414],[-70.661,-35.331],[-70.6776,-35.3298],[-70.6889,-35.3227],[-70.7112,-35.316],[-70.8042,-35.3139],[-70.8434,-35.3059],[-70.8571,-35.3069],[-70.8613,-35.31],[-70.8703,-35.3091],[-70.8791,-35.3125],[-70.8892,-35.3251],[-70.9106,-35.3306],[-70.9158,-35.3274],[-70.9171,-35.3217],[-70.9278,-35.3149],[-70.928,-35.311],[-70.9582,-35.3087],[-70.9763,-35.303],[-70.9832,-35.2982],[-70.9839,-35.2909],[-70.9871,-35.2884],[-71.0048,-35.2821],[-71.0176,-35.2715],[-71.0311,-35.2686],[-71.0432,-35.2588],[-71.0549,-35.2555],[-71.0776,-35.2269],[-71.0791,-35.217],[-71.0914,-35.2108],[-71.0918,-35.2001],[-71.106,-35.1862],[-71.1116,-35.1836],[-71.1265,-35.186],[-71.1398,-35.1633],[-71.153,-35.1542],[-71.1609,-35.1531],[-71.1751,-35.1376],[-71.1815,-35.1346],[-71.1845,-35.1218],[-71.226,-35.0736],[-71.2253,-35.0557],[-71.2359,-35.0403],[-71.2458,-35.0343],[-71.2494,-35.0271],[-71.2583,-35.0238],[-71.2781,-35.0074],[-71.2781,-35.0019],[-71.2896,-34.9909],[-71.3081,-34.985],[-71.3124,-34.9809],[-71.3179,-34.9848],[-71.3269,-34.9828],[-71.3461,-34.9888],[-71.37,-34.9823],[-71.3804,-34.9843],[-71.3896,-34.9839],[-71.389,-34.9819],[-71.378,-34.9764],[-71.3708,-34.9669],[-71.3622,-34.9623],[-71.3547,-34.9644],[-71.3435,-34.96],[-71.3349,-34.9623],[-71.32,-34.958],[-71.3145,-34.951],[-71.2976,-34.95],[-71.295,-34.9436],[-71.263,-34.9296],[-71.2592,-34.9221],[-71.2484,-34.9187],[-71.2136,-34.8906],[-71.1982,-34.8879],[-71.1829,-34.8985],[-71.1777,-34.8974],[-71.1588,-34.9037],[-71.1611,-34.9169],[-71.199,-34.9725],[-71.2158,-34.9836],[-71.2079,-34.9887],[-71.2051,-34.9801],[-71.1962,-34.9803],[-71.1938,-34.9755],[-71.185,-34.9725],[-71.1755,-34.9637],[-71.1592,-34.9631],[-71.1403,-34.9879],[-71.1246,-34.9947],[-71.1161,-34.9934],[-71.1114,-34.9964],[-71.1226,-35.0106],[-71.1207,-35.0151],[-71.1139,-35.015],[-71.1124,-35.0185],[-71.1165,-35.0222],[-71.1109,-35.0323],[-71.1136,-35.0376],[-71.1078,-35.0392],[-71.1093,-35.0442],[-71.1044,-35.0537],[-71.1052,-35.0596],[-71.0925,-35.0564],[-71.0892,-35.0679],[-71.0761,-35.0718],[-71.065,-35.0675],[-71.0555,-35.0693],[-71.0514,-35.0614],[-71.0333,-35.0653],[-71.0056,-35.077],[-70.9921,-35.0786],[-70.9854,-35.0842],[-70.9609,-35.0883],[-70.9556,-35.095],[-70.945,-35.1008],[-70.9367,-35.0982],[-70.9217,-35.1037],[-70.9048,-35.1181],[-70.8783,-35.1229],[-70.8718,-35.128],[-70.8514,-35.1349],[-70.8477,-35.1381],[-70.8457,-35.1476],[-70.8392,-35.1479],[-70.8328,-35.1591],[-70.8051,-35.1749],[-70.7767,-35.1798],[-70.773,-35.1767],[-70.7549,-35.1833],[-70.7493,-35.1904],[-70.7372,-35.1891],[-70.7272,-35.1933],[-70.7257,-35.2054],[-70.7358,-35.219],[-70.736,-35.2242],[-70.7326,-35.2315],[-70.7337,-35.2448],[-70.7266,-35.2528],[-70.7058,-35.2399],[-70.6815,-35.2514],[-70.6635,-35.2522],[-70.6525,-35.2441],[-70.6445,-35.2443],[-70.6426,-35.2479],[-70.6453,-35.2516],[-70.6335,-35.257],[-70.632,-35.2641],[-70.6132,-35.26],[-70.5877,-35.2616],[-70.565,-35.3002],[-70.5516,-35.3004],[-70.5381,-35.3068],[-70.5137,-35.3098],[-70.5006,-35.3211],[-70.4931,-35.3217],[-70.4842,-35.3162],[-70.4691,-35.3133],[-70.461,-35.32],[-70.448,-35.3154],[-70.4322,-35.3185],[-70.4369,-35.3238],[-70.4358,-35.3304],[-70.4283,-35.3435],[-70.42,-35.3485],[-70.418,-35.3553],[-70.4248,-35.3713],[-70.4528,-35.392],[-70.4471,-35.4085],[-70.4385,-35.4131],[-70.4446,-35.4213],[-70.4504,-35.4218],[-70.4529,-35.4272],[-70.4456,-35.4338],[-70.4349,-35.4367],[-70.4352,-35.4425],[-70.4323,-35.4453],[-70.4456,-35.4508],[-70.4443,-35.46],[-70.4468,-35.4632],[-70.4162,-35.4882],[-70.4024,-35.49],[-70.3954,-35.4862],[-70.3851,-35.5097],[-70.3676,-35.5214],[-70.388,-35.5165],[-70.3882,-35.5165]]]}},{"type":"Feature","properties":{"cod_comuna":7304,"codregion":7,"Comuna":"Molina","Provincia":"Curicó","Region":"Región del Maule"},"geometry":{"type":"Polygon","coordinates":[[[-70.4179,-35.627],[-70.4285,-35.6125],[-70.4277,-35.601],[-70.4325,-35.5962],[-70.4448,-35.5957],[-70.4518,-35.5999],[-70.461,-35.5983],[-70.4738,-35.5921],[-70.489,-35.5766],[-70.4918,-35.5698],[-70.4981,-35.5678],[-70.4984,-35.5624],[-70.4921,-35.5565],[-70.4972,-35.5408],[-70.4918,-35.535],[-70.496,-35.5246],[-70.4949,-35.5158],[-70.5094,-35.5002],[-70.5298,-35.492],[-70.5414,-35.4652],[-70.5546,-35.4701],[-70.5601,-35.4829],[-70.5757,-35.4831],[-70.5856,-35.476],[-70.5932,-35.4773],[-70.6008,-35.4859],[-70.6021,-35.4947],[-70.6184,-35.5067],[-70.6191,-35.5154],[-70.6411,-35.5153],[-70.6689,-35.5289],[-70.6772,-35.5219],[-70.6859,-35.522],[-70.7108,-35.534],[-70.7208,-35.5436],[-70.7343,-35.5439],[-70.7384,-35.5527],[-70.7498,-35.5578],[-70.7459,-35.5654],[-70.7486,-35.5725],[-70.7696,-35.5549],[-70.7664,-35.5446],[-70.7606,-35.5397],[-70.7742,-35.5293],[-70.7766,-35.5198],[-70.7889,-35.5174],[-70.7881,-35.5049],[-70.8038,-35.5054],[-70.8163,-35.5098],[-70.8205,-35.5079],[-70.8187,-35.5032],[-70.8261,-35.4992],[-70.845,-35.5025],[-70.8619,-35.4969],[-70.8834,-35.4953],[-70.8869,-35.4995],[-70.9057,-35.4969],[-70.9334,-35.5],[-70.9549,-35.4849],[-70.9925,-35.4776],[-71.0092,-35.4719],[-71.0139,-35.4647],[-71.0348,-35.4594],[-71.04,-35.4445],[-71.0559,-35.4223],[-71.0553,-35.4136],[-71.0678,-35.4116],[-71.0879,-35.4017],[-71.0941,-35.3891],[-71.1019,-35.385],[-71.1015,-35.3808],[-71.1124,-35.3716],[-71.1147,-35.3497],[-71.1104,-35.3356],[-71.1149,-35.33],[-71.1138,-35.3158],[-71.1176,-35.3025],[-71.1279,-35.2934],[-71.1348,-35.2919],[-71.1441,-35.2815],[-71.1457,-35.2751],[-71.1591,-35.2653],[-71.1632,-35.2587],[-71.1615,-35.2536],[-71.1742,-35.248],[-71.1774,-35.2409],[-71.1963,-35.2239],[-71.2043,-35.2207],[-71.2107,-35.2119],[-71.2163,-35.1945],[-71.226,-35.1831],[-71.2585,-35.1739],[-71.2616,-35.1638],[-71.2747,-35.1604],[-71.2771,-35.1561],[-71.2969,-35.1487],[-71.3097,-35.1351],[-71.3143,-35.1368],[-71.3252,-35.1312],[-71.3313,-35.1342],[-71.3363,-35.131],[-71.3423,-35.1397],[-71.3601,-35.1416],[-71.3717,-35.157],[-71.3691,-35.1605],[-71.3777,-35.1604],[-71.3768,-35.1638],[-71.3839,-35.1711],[-71.381,-35.1747],[-71.3843,-35.1804],[-71.3946,-35.1848],[-71.3986,-35.1916],[-71.4041,-35.1936],[-71.4087,-35.203],[-71.4163,-35.2039],[-71.4219,-35.2106],[-71.4386,-35.217],[-71.4463,-35.2132],[-71.464,-35.219],[-71.4704,-35.2183],[-71.4701,-35.2216],[-71.4752,-35.22],[-71.4822,-35.2247],[-71.4816,-35.2286],[-71.4884,-35.2293],[-71.4948,-35.2356],[-71.4988,-35.2335],[-71.4932,-35.2235],[-71.5009,-35.2148],[-71.4866,-35.1986],[-71.4661,-35.1836],[-71.4506,-35.1793],[-71.4577,-35.1717],[-71.4561,-35.1651],[-71.4391,-35.153],[-71.4372,-35.1433],[-71.4333,-35.1396],[-71.4236,-35.1384],[-71.4252,-35.1354],[-71.4159,-35.121],[-71.4016,-35.0819],[-71.3941,-35.0788],[-71.3842,-35.0826],[-71.3779,-35.0783],[-71.3785,-35.0729],[-71.3723,-35.0703],[-71.3556,-35.0701],[-71.3486,-35.0741],[-71.3409,-35.0725],[-71.3349,-35.0777],[-71.3284,-35.0727],[-71.3181,-35.055],[-71.3138,-35.0656],[-71.3036,-35.0758],[-71.2843,-35.0517],[-71.2565,-35.0384],[-71.2487,-35.0278],[-71.2253,-35.0557],[-71.226,-35.0736],[-71.1845,-35.1218],[-71.1815,-35.1346],[-71.1751,-35.1376],[-71.1609,-35.1531],[-71.153,-35.1542],[-71.1398,-35.1633],[-71.1265,-35.186],[-71.1116,-35.1836],[-71.106,-35.1862],[-71.0918,-35.2001],[-71.0914,-35.2108],[-71.0791,-35.217],[-71.0776,-35.2269],[-71.0549,-35.2555],[-71.0432,-35.2588],[-71.0311,-35.2686],[-71.0176,-35.2715],[-71.0048,-35.2821],[-70.9871,-35.2884],[-70.9839,-35.2909],[-70.9832,-35.2982],[-70.9763,-35.303],[-70.9582,-35.3087],[-70.928,-35.311],[-70.9278,-35.3149],[-70.9171,-35.3217],[-70.9158,-35.3274],[-70.9106,-35.3306],[-70.8892,-35.3251],[-70.8791,-35.3125],[-70.8571,-35.3069],[-70.8419,-35.306],[-70.8042,-35.3139],[-70.7112,-35.316],[-70.6889,-35.3227],[-70.6776,-35.3298],[-70.6592,-35.3319],[-70.653,-35.3414],[-70.6264,-35.3547],[-70.6027,-35.3768],[-70.5752,-35.3789],[-70.5709,-35.3732],[-70.542,-35.3896],[-70.5351,-35.4015],[-70.515,-35.4196],[-70.5088,-35.4315],[-70.5091,-35.4374],[-70.5014,-35.4457],[-70.4981,-35.4619],[-70.4895,-35.4694],[-70.4865,-35.4686],[-70.4637,-35.4829],[-70.4628,-35.4871],[-70.4481,-35.4931],[-70.435,-35.5077],[-70.4314,-35.5212],[-70.4346,-35.5257],[-70.4278,-35.5332],[-70.4305,-35.5374],[-70.4261,-35.5405],[-70.4304,-35.544],[-70.43,-35.5486],[-70.425,-35.5598],[-70.4099,-35.5601],[-70.4037,-35.5633],[-70.3966,-35.5829],[-70.3987,-35.5877],[-70.3913,-35.5922],[-70.3847,-35.6058],[-70.3919,-35.6104],[-70.4018,-35.627],[-70.4115,-35.63],[-70.4181,-35.6301],[-70.418,-35.6277],[-70.4179,-35.627]]]}},{"type":"Feature","properties":{"cod_comuna":7402,"codregion":7,"Comuna":"Colbún","Provincia":"Linares","Region":"Región del Maule"},"geometry":{"type":"Polygon","coordinates":[[[-70.6734,-36.249],[-70.6779,-36.2498],[-70.681,-36.2559],[-70.6887,-36.2567],[-70.7056,-36.272],[-70.7032,-36.2797],[-70.6932,-36.2797],[-70.6855,-36.2837],[-70.6841,-36.2889],[-70.6882,-36.3003],[-70.6837,-36.3048],[-70.6867,-36.3107],[-70.7021,-36.3212],[-70.704,-36.335],[-70.7116,-36.3399],[-70.7111,-36.3448],[-70.7077,-36.3499],[-70.7021,-36.3511],[-70.7012,-36.3599],[-70.6907,-36.3609],[-70.6878,-36.3696],[-70.6813,-36.3719],[-70.6777,-36.3887],[-70.6875,-36.4006],[-70.6885,-36.4078],[-70.701,-36.4102],[-70.7124,-36.4269],[-70.7389,-36.4292],[-70.7352,-36.4154],[-70.74,-36.4079],[-70.7465,-36.4058],[-70.7554,-36.4088],[-70.7622,-36.4211],[-70.7723,-36.4284],[-70.7886,-36.4287],[-70.8077,-36.4029],[-70.8174,-36.396],[-70.8325,-36.4056],[-70.8359,-36.4148],[-70.8478,-36.4185],[-70.8695,-36.4102],[-70.87,-36.4041],[-70.8644,-36.3975],[-70.8843,-36.3965],[-70.8892,-36.4005],[-70.8875,-36.4154],[-70.8911,-36.4241],[-70.8902,-36.4352],[-70.8863,-36.4378],[-70.8943,-36.4525],[-70.887,-36.4609],[-70.8889,-36.4663],[-70.9013,-36.4741],[-70.9279,-36.4749],[-70.9275,-36.4842],[-70.9341,-36.4917],[-70.9445,-36.4915],[-70.9479,-36.4975],[-70.9516,-36.4971],[-70.9572,-36.5034],[-70.9738,-36.5024],[-70.9786,-36.494],[-70.9891,-36.4961],[-70.9971,-36.4868],[-71.0095,-36.4868],[-71.0194,-36.4734],[-71.0272,-36.4717],[-71.0353,-36.4742],[-71.0388,-36.4698],[-71.0607,-36.4634],[-71.06,-36.4562],[-71.0681,-36.4479],[-71.0625,-36.4408],[-71.0581,-36.4221],[-71.065,-36.4092],[-71.0623,-36.4067],[-71.0642,-36.3965],[-71.0593,-36.3872],[-71.0665,-36.3796],[-71.0735,-36.3785],[-71.0823,-36.3682],[-71.0993,-36.3698],[-71.1139,-36.3618],[-71.1073,-36.3376],[-71.1342,-36.3225],[-71.1306,-36.3147],[-71.1535,-36.2994],[-71.1516,-36.2949],[-71.1555,-36.2886],[-71.1507,-36.2793],[-71.1557,-36.263],[-71.1482,-36.2588],[-71.1261,-36.2549],[-71.1222,-36.2496],[-71.1159,-36.2485],[-71.1106,-36.2373],[-71.1023,-36.24],[-71.09,-36.2351],[-71.087,-36.2282],[-71.0579,-36.2242],[-71.0507,-36.2154],[-71.0419,-36.2192],[-71.0399,-36.214],[-71.035,-36.2121],[-71.0298,-36.2008],[-71.0304,-36.1949],[-71.0184,-36.1795],[-71.0277,-36.1699],[-71.027,-36.1552],[-71.0329,-36.1525],[-71.0316,-36.147],[-71.0253,-36.1444],[-71.0168,-36.1339],[-71.031,-36.1319],[-71.0309,-36.123],[-71.0236,-36.1106],[-71.0117,-36.1032],[-71.0056,-36.088],[-71.0118,-36.0794],[-71.0316,-36.074],[-71.0354,-36.0695],[-71.0358,-36.0589],[-71.0461,-36.0456],[-71.0463,-36.0386],[-71.0378,-36.0357],[-71.0434,-36.028],[-71.046,-36.0139],[-71.0355,-36.0057],[-71.0352,-35.9992],[-71.0504,-36.0007],[-71.071,-35.9919],[-71.0764,-36.0033],[-71.0712,-36.0078],[-71.071,-36.0162],[-71.0804,-36.0263],[-71.0982,-36.0199],[-71.1021,-36.0153],[-71.1133,-36.0152],[-71.1315,-36.0084],[-71.1328,-36.0005],[-71.1259,-35.9849],[-71.1144,-35.9854],[-71.1055,-35.9803],[-71.0918,-35.9539],[-71.0815,-35.9499],[-71.0822,-35.9416],[-71.0689,-35.9289],[-71.0715,-35.9243],[-71.068,-35.9122],[-71.0556,-35.8958],[-71.0484,-35.892],[-71.0436,-35.882],[-71.0476,-35.8724],[-71.0462,-35.859],[-71.0536,-35.8567],[-71.0643,-35.8618],[-71.0764,-35.8576],[-71.1183,-35.87],[-71.1207,-35.8638],[-71.1449,-35.8534],[-71.1596,-35.857],[-71.1856,-35.8528],[-71.2016,-35.8591],[-71.2051,-35.8568],[-71.2319,-35.8602],[-71.246,-35.8583],[-71.2568,-35.8614],[-71.2724,-35.8584],[-71.2741,-35.853],[-71.2959,-35.8426],[-71.3379,-35.8384],[-71.3463,-35.8421],[-71.3579,-35.8393],[-71.3631,-35.8438],[-71.3711,-35.8422],[-71.3815,-35.8497],[-71.405,-35.8545],[-71.4392,-35.8417],[-71.4465,-35.8346],[-71.4592,-35.8321],[-71.4689,-35.823],[-71.4842,-35.8203],[-71.4908,-35.8098],[-71.4963,-35.8087],[-71.5008,-35.8025],[-71.4997,-35.7982],[-71.5066,-35.7982],[-71.5075,-35.793],[-71.5114,-35.7928],[-71.508,-35.7877],[-71.5181,-35.7832],[-71.5179,-35.7795],[-71.5127,-35.7663],[-71.4943,-35.7505],[-71.4791,-35.6984],[-71.4857,-35.6965],[-71.4404,-35.6465],[-71.43,-35.6212],[-71.4284,-35.6089],[-71.4032,-35.6094],[-71.3869,-35.6216],[-71.3794,-35.6195],[-71.366,-35.628],[-71.3647,-35.6413],[-71.3531,-35.6566],[-71.3502,-35.6665],[-71.3348,-35.6802],[-71.3135,-35.6806],[-71.277,-35.6743],[-71.2643,-35.6755],[-71.2518,-35.6832],[-71.2254,-35.7128],[-71.1981,-35.7256],[-71.1701,-35.7234],[-71.1494,-35.7267],[-71.1367,-35.7182],[-71.1282,-35.7183],[-71.1136,-35.7052],[-71.0785,-35.7066],[-71.0753,-35.7162],[-71.0664,-35.7182],[-71.0499,-35.7365],[-71.0428,-35.752],[-71.0423,-35.7638],[-71.0333,-35.7731],[-71.0366,-35.7846],[-71.0367,-35.7937],[-71.0336,-35.797],[-71.0358,-35.8081],[-71.0273,-35.8157],[-71.0208,-35.8295],[-71.0175,-35.8286],[-71.0139,-35.8322],[-71.0076,-35.829],[-70.9976,-35.8365],[-71.0012,-35.8644],[-70.9795,-35.8701],[-70.9796,-35.8765],[-70.9745,-35.8856],[-70.9654,-35.8914],[-70.9654,-35.8977],[-70.9579,-35.9102],[-70.9363,-35.9256],[-70.9396,-35.9281],[-70.94,-35.9359],[-70.9345,-35.9428],[-70.9176,-35.9478],[-70.9068,-35.9471],[-70.8901,-35.9569],[-70.8843,-35.9769],[-70.8767,-35.9813],[-70.8719,-35.9911],[-70.8476,-35.9934],[-70.8354,-35.9837],[-70.8323,-35.9737],[-70.8066,-35.974],[-70.8007,-35.9707],[-70.7882,-35.9704],[-70.7824,-35.9655],[-70.7743,-35.9732],[-70.7627,-35.9733],[-70.747,-35.9825],[-70.7207,-35.9801],[-70.7153,-35.9831],[-70.6847,-35.984],[-70.6814,-35.9872],[-70.6712,-35.985],[-70.6656,-35.9876],[-70.6607,-35.9835],[-70.6516,-35.9823],[-70.6357,-35.9889],[-70.6265,-35.9996],[-70.6182,-35.9991],[-70.608,-35.9924],[-70.6017,-36.0025],[-70.5895,-36.0007],[-70.5759,-36.004],[-70.5725,-36.0077],[-70.5806,-36.0118],[-70.5779,-36.016],[-70.5795,-36.0201],[-70.5848,-36.0242],[-70.6107,-36.023],[-70.61,-36.0315],[-70.6206,-36.0396],[-70.6013,-36.0518],[-70.5993,-36.0577],[-70.6069,-36.0707],[-70.6093,-36.0844],[-70.6135,-36.0896],[-70.6236,-36.0904],[-70.6219,-36.0973],[-70.6246,-36.1039],[-70.6219,-36.1092],[-70.6114,-36.11],[-70.6077,-36.1168],[-70.5828,-36.1154],[-70.5728,-36.1214],[-70.5679,-36.1328],[-70.5783,-36.1398],[-70.583,-36.1477],[-70.579,-36.1561],[-70.5731,-36.1578],[-70.575,-36.1634],[-70.571,-36.175],[-70.583,-36.1823],[-70.5861,-36.1892],[-70.594,-36.1895],[-70.605,-36.1962],[-70.6072,-36.2071],[-70.6274,-36.2124],[-70.632,-36.2162],[-70.6245,-36.227],[-70.6324,-36.239],[-70.6393,-36.2433],[-70.6603,-36.241],[-70.6727,-36.249],[-70.6734,-36.249]]]}},{"type":"Feature","properties":{"cod_comuna":7109,"codregion":7,"Comuna":"San Clemente","Provincia":"Talca","Region":"Región del Maule"},"geometry":{"type":"Polygon","coordinates":[[[-70.4759,-36.1738],[-70.4924,-36.1775],[-70.4988,-36.1703],[-70.5073,-36.1675],[-70.51,-36.1566],[-70.5227,-36.152],[-70.5235,-36.1472],[-70.5335,-36.142],[-70.5448,-36.1426],[-70.5612,-36.1379],[-70.5787,-36.1169],[-70.6077,-36.1168],[-70.6114,-36.11],[-70.6239,-36.1069],[-70.6236,-36.0904],[-70.6135,-36.0896],[-70.6093,-36.0844],[-70.6069,-36.0707],[-70.5993,-36.0577],[-70.6013,-36.0518],[-70.6206,-36.0396],[-70.61,-36.0315],[-70.6107,-36.023],[-70.5848,-36.0242],[-70.5795,-36.0201],[-70.5779,-36.016],[-70.5806,-36.0118],[-70.5725,-36.0077],[-70.5773,-36.0031],[-70.5895,-36.0007],[-70.6017,-36.0025],[-70.608,-35.9924],[-70.6182,-35.9991],[-70.6265,-35.9996],[-70.6357,-35.9889],[-70.6516,-35.9823],[-70.6607,-35.9835],[-70.6656,-35.9876],[-70.6712,-35.985],[-70.6814,-35.9872],[-70.6847,-35.984],[-70.7153,-35.9831],[-70.7207,-35.9801],[-70.747,-35.9825],[-70.7627,-35.9733],[-70.7743,-35.9732],[-70.7824,-35.9655],[-70.7882,-35.9704],[-70.8007,-35.9707],[-70.8066,-35.974],[-70.8323,-35.9737],[-70.8354,-35.9837],[-70.8476,-35.9934],[-70.8719,-35.9911],[-70.8767,-35.9813],[-70.8843,-35.9769],[-70.8901,-35.9569],[-70.9068,-35.9471],[-70.9176,-35.9478],[-70.9345,-35.9428],[-70.94,-35.9359],[-70.9396,-35.9281],[-70.9363,-35.9256],[-70.9579,-35.9102],[-70.9654,-35.8977],[-70.9654,-35.8914],[-70.9745,-35.8856],[-70.9796,-35.8765],[-70.9795,-35.8701],[-71.0012,-35.8644],[-70.9976,-35.8365],[-71.0076,-35.829],[-71.0139,-35.8322],[-71.0175,-35.8286],[-71.0208,-35.8295],[-71.0273,-35.8157],[-71.0358,-35.8081],[-71.0336,-35.797],[-71.0367,-35.7937],[-71.0366,-35.7846],[-71.0333,-35.7731],[-71.0423,-35.7638],[-71.0428,-35.752],[-71.0499,-35.7365],[-71.0664,-35.7182],[-71.0753,-35.7162],[-71.0785,-35.7066],[-71.1136,-35.7052],[-71.1282,-35.7183],[-71.1367,-35.7182],[-71.1494,-35.7267],[-71.1701,-35.7234],[-71.1981,-35.7256],[-71.2254,-35.7128],[-71.2518,-35.6832],[-71.2643,-35.6755],[-71.277,-35.6743],[-71.3135,-35.6806],[-71.337,-35.6791],[-71.35,-35.6667],[-71.3531,-35.6566],[-71.3616,-35.6471],[-71.366,-35.628],[-71.3794,-35.6195],[-71.3869,-35.6216],[-71.4032,-35.6094],[-71.4285,-35.6089],[-71.434,-35.6134],[-71.4424,-35.6135],[-71.4455,-35.6094],[-71.4605,-35.6076],[-71.4643,-35.6038],[-71.4803,-35.6022],[-71.5047,-35.6086],[-71.5355,-35.601],[-71.5535,-35.591],[-71.5759,-35.5868],[-71.5702,-35.5791],[-71.5875,-35.5717],[-71.5745,-35.5459],[-71.5707,-35.5315],[-71.561,-35.5252],[-71.5539,-35.5133],[-71.5587,-35.5114],[-71.5416,-35.488],[-71.5329,-35.4962],[-71.5049,-35.4506],[-71.498,-35.4519],[-71.4923,-35.4353],[-71.4957,-35.4323],[-71.493,-35.423],[-71.4812,-35.4246],[-71.474,-35.4201],[-71.4488,-35.428],[-71.4403,-35.4259],[-71.4236,-35.4357],[-71.411,-35.4313],[-71.4038,-35.4388],[-71.3893,-35.4446],[-71.3244,-35.4403],[-71.318,-35.4363],[-71.3116,-35.4405],[-71.311,-35.4545],[-71.3003,-35.4577],[-71.2938,-35.4564],[-71.2926,-35.4629],[-71.272,-35.4692],[-71.2577,-35.4364],[-71.252,-35.4358],[-71.2495,-35.4339],[-71.251,-35.4311],[-71.2483,-35.4309],[-71.2482,-35.407],[-71.251,-35.4032],[-71.2486,-35.391],[-71.2548,-35.3787],[-71.253,-35.3701],[-71.2353,-35.3783],[-71.2253,-35.3762],[-71.2174,-35.3802],[-71.1921,-35.3721],[-71.1586,-35.3918],[-71.1521,-35.3876],[-71.1409,-35.3866],[-71.128,-35.3909],[-71.1273,-35.3837],[-71.1213,-35.3801],[-71.0932,-35.4099],[-71.086,-35.4246],[-71.0714,-35.4372],[-71.0566,-35.4427],[-71.0555,-35.449],[-71.0499,-35.4552],[-71.0378,-35.4517],[-71.0348,-35.4594],[-71.0133,-35.4649],[-71.0092,-35.4719],[-70.9549,-35.4849],[-70.9334,-35.5],[-70.9057,-35.4969],[-70.8869,-35.4995],[-70.8834,-35.4953],[-70.8619,-35.4969],[-70.845,-35.5025],[-70.8261,-35.4992],[-70.8187,-35.5032],[-70.8205,-35.5079],[-70.8163,-35.5098],[-70.8038,-35.5054],[-70.7881,-35.5049],[-70.7889,-35.5174],[-70.7766,-35.5198],[-70.7742,-35.5293],[-70.7606,-35.5397],[-70.7664,-35.5446],[-70.7696,-35.5549],[-70.7653,-35.5605],[-70.7584,-35.562],[-70.7495,-35.5724],[-70.7459,-35.5661],[-70.7498,-35.5578],[-70.7384,-35.5527],[-70.7343,-35.5439],[-70.7208,-35.5436],[-70.7108,-35.534],[-70.6859,-35.522],[-70.6772,-35.5219],[-70.6689,-35.5289],[-70.6411,-35.5153],[-70.6191,-35.5154],[-70.6184,-35.5067],[-70.6021,-35.4947],[-70.6008,-35.4859],[-70.5932,-35.4773],[-70.5868,-35.4758],[-70.5757,-35.4831],[-70.5612,-35.4831],[-70.5577,-35.4812],[-70.5546,-35.4701],[-70.5404,-35.4656],[-70.5304,-35.4913],[-70.5094,-35.5002],[-70.4949,-35.5158],[-70.496,-35.5246],[-70.4918,-35.535],[-70.4972,-35.5408],[-70.4921,-35.5565],[-70.499,-35.5666],[-70.4918,-35.5698],[-70.489,-35.5766],[-70.4723,-35.5933],[-70.4518,-35.5999],[-70.4351,-35.5946],[-70.428,-35.6001],[-70.4285,-35.6125],[-70.4179,-35.6259],[-70.423,-35.6407],[-70.4101,-35.6462],[-70.4086,-35.6561],[-70.3974,-35.6639],[-70.4054,-35.6714],[-70.4044,-35.6771],[-70.3969,-35.6877],[-70.3861,-35.6879],[-70.384,-35.6965],[-70.3746,-35.7003],[-70.3732,-35.7169],[-70.3683,-35.7219],[-70.3698,-35.737],[-70.3618,-35.743],[-70.3582,-35.7535],[-70.3716,-35.7581],[-70.3747,-35.7643],[-70.38,-35.7669],[-70.3759,-35.7776],[-70.3793,-35.7869],[-70.3626,-35.7946],[-70.3579,-35.8013],[-70.347,-35.801],[-70.3371,-35.7954],[-70.3237,-35.8099],[-70.3117,-35.8132],[-70.3163,-35.8197],[-70.3275,-35.8221],[-70.331,-35.8287],[-70.3574,-35.8429],[-70.3694,-35.8416],[-70.3779,-35.8499],[-70.3795,-35.8649],[-70.384,-35.8689],[-70.406,-35.8674],[-70.4213,-35.8763],[-70.4194,-35.885],[-70.4257,-35.9051],[-70.4231,-35.9153],[-70.4065,-35.9222],[-70.365,-35.925],[-70.3763,-35.9313],[-70.3799,-35.9378],[-70.3869,-35.9397],[-70.3918,-35.9521],[-70.4056,-35.9534],[-70.416,-35.96],[-70.4224,-35.9725],[-70.4185,-35.9777],[-70.4102,-35.9804],[-70.3935,-35.9817],[-70.3748,-35.9948],[-70.3821,-35.9998],[-70.3807,-36.0249],[-70.3768,-36.027],[-70.376,-36.032],[-70.3706,-36.0328],[-70.3692,-36.0383],[-70.3713,-36.0434],[-70.3866,-36.0472],[-70.3925,-36.0541],[-70.4079,-36.0537],[-70.412,-36.0603],[-70.4175,-36.0755],[-70.4183,-36.0894],[-70.4237,-36.0919],[-70.4257,-36.0977],[-70.4154,-36.1046],[-70.4148,-36.1086],[-70.42,-36.1151],[-70.4223,-36.1252],[-70.4178,-36.1377],[-70.4214,-36.1432],[-70.421,-36.156],[-70.4421,-36.1636],[-70.4483,-36.1725],[-70.4737,-36.1729],[-70.4759,-36.1738]]]}},{"type":"Feature","properties":{"cod_comuna":7302,"codregion":7,"Comuna":"Hualañé","Provincia":"Curicó","Region":"Región del Maule"},"geometry":{"type":"Polygon","coordinates":[[[-71.8647,-34.8184],[-71.8465,-34.8248],[-71.8425,-34.8366],[-71.8285,-34.8357],[-71.818,-34.8408],[-71.8097,-34.8372],[-71.8021,-34.8287],[-71.7946,-34.8277],[-71.7898,-34.8352],[-71.7749,-34.8458],[-71.7719,-34.8614],[-71.7597,-34.8741],[-71.7548,-34.8845],[-71.7327,-34.8978],[-71.7272,-34.9038],[-71.7269,-34.9136],[-71.7236,-34.9118],[-71.7151,-34.9162],[-71.7096,-34.9278],[-71.7096,-34.9373],[-71.6749,-34.9236],[-71.6674,-34.9091],[-71.6677,-34.9038],[-71.6812,-34.8958],[-71.6887,-34.8971],[-71.6828,-34.8906],[-71.6793,-34.88],[-71.6674,-34.871],[-71.6618,-34.8553],[-71.6425,-34.8609],[-71.6252,-34.8617],[-71.6234,-34.8652],[-71.6138,-34.867],[-71.6067,-34.8732],[-71.6096,-34.8811],[-71.6064,-34.8832],[-71.5889,-34.8796],[-71.5769,-34.8673],[-71.5734,-34.8675],[-71.5725,-34.8738],[-71.5683,-34.8766],[-71.5529,-34.8718],[-71.5422,-34.8759],[-71.5342,-34.8696],[-71.5268,-34.8762],[-71.5401,-34.8891],[-71.5428,-34.888],[-71.5483,-34.8929],[-71.5618,-34.9156],[-71.5687,-34.9106],[-71.5712,-34.9135],[-71.5805,-34.9263],[-71.5776,-34.9374],[-71.5714,-34.9386],[-71.563,-34.9276],[-71.5198,-34.9483],[-71.5109,-34.9565],[-71.4967,-34.9555],[-71.4962,-34.9657],[-71.4785,-34.9652],[-71.4725,-34.9602],[-71.4616,-34.9633],[-71.4571,-34.968],[-71.4575,-34.9726],[-71.4628,-34.9763],[-71.4618,-34.9836],[-71.4827,-34.9967],[-71.4998,-34.9994],[-71.5356,-34.9964],[-71.5486,-35.0006],[-71.5593,-35.0112],[-71.5618,-35.0072],[-71.5656,-35.008],[-71.5765,-35.0204],[-71.5847,-35.0227],[-71.5985,-35.0351],[-71.5918,-35.0545],[-71.6145,-35.0727],[-71.6225,-35.0735],[-71.6246,-35.0765],[-71.6225,-35.0848],[-71.6614,-35.094],[-71.6719,-35.1017],[-71.6839,-35.1049],[-71.7066,-35.0986],[-71.7216,-35.0847],[-71.7223,-35.0777],[-71.7281,-35.0729],[-71.7283,-35.0612],[-71.7315,-35.0561],[-71.7574,-35.0301],[-71.7572,-35.0168],[-71.7651,-35.0131],[-71.7635,-35.0045],[-71.7726,-34.9998],[-71.7734,-34.9952],[-71.7853,-34.9932],[-71.7914,-34.9977],[-71.7966,-34.9922],[-71.8071,-34.9896],[-71.8142,-34.9833],[-71.8134,-34.9742],[-71.8165,-34.9716],[-71.8475,-34.9788],[-71.8311,-34.9693],[-71.8389,-34.9514],[-71.8511,-34.9498],[-71.85,-34.9436],[-71.8531,-34.9408],[-71.8629,-34.94],[-71.8659,-34.9433],[-71.8857,-34.9372],[-71.9055,-34.9379],[-71.91,-34.9466],[-71.9189,-34.9493],[-71.9205,-34.9404],[-71.9262,-34.9358],[-71.93,-34.9264],[-71.9372,-34.9252],[-71.9379,-34.916],[-71.9481,-34.8911],[-71.9411,-34.8856],[-71.9448,-34.8805],[-71.9424,-34.8762],[-71.9461,-34.867],[-71.9434,-34.8531],[-71.9399,-34.8497],[-71.9376,-34.856],[-71.913,-34.8683],[-71.8942,-34.8714],[-71.8928,-34.8656],[-71.8813,-34.861],[-71.8841,-34.8563],[-71.8739,-34.8245],[-71.8651,-34.8181],[-71.8647,-34.8184]]]}},{"type":"Feature","properties":{"cod_comuna":7305,"codregion":7,"Comuna":"Rauco","Provincia":"Curicó","Region":"Región del Maule"},"geometry":{"type":"Polygon","coordinates":[[[-71.3609,-34.8332],[-71.3655,-34.841],[-71.3648,-34.8467],[-71.3519,-34.8461],[-71.341,-34.8562],[-71.336,-34.867],[-71.3308,-34.8631],[-71.314,-34.8685],[-71.2635,-34.8685],[-71.26,-34.8869],[-71.2724,-34.8895],[-71.2676,-34.9021],[-71.2714,-34.9028],[-71.271,-34.9138],[-71.2655,-34.9139],[-71.2631,-34.9296],[-71.295,-34.9436],[-71.2976,-34.95],[-71.3152,-34.9513],[-71.3215,-34.9587],[-71.3349,-34.9623],[-71.3442,-34.96],[-71.3547,-34.9644],[-71.3622,-34.9623],[-71.3708,-34.9669],[-71.378,-34.9764],[-71.3943,-34.9858],[-71.4152,-34.9863],[-71.4397,-34.9946],[-71.4546,-35.0051],[-71.469,-35.0245],[-71.493,-35.0323],[-71.5013,-35.0428],[-71.5158,-35.0452],[-71.5371,-35.0405],[-71.5572,-35.0502],[-71.5727,-35.0493],[-71.5793,-35.0458],[-71.5918,-35.0545],[-71.5985,-35.0351],[-71.5847,-35.0227],[-71.5765,-35.0204],[-71.5656,-35.008],[-71.5618,-35.0072],[-71.5593,-35.0112],[-71.5486,-35.0006],[-71.5356,-34.9964],[-71.4998,-34.9994],[-71.4827,-34.9967],[-71.4618,-34.9836],[-71.4628,-34.9763],[-71.4574,-34.9723],[-71.4608,-34.9639],[-71.4725,-34.9602],[-71.4785,-34.9652],[-71.4962,-34.9657],[-71.4967,-34.9555],[-71.5109,-34.9565],[-71.5198,-34.9483],[-71.563,-34.9276],[-71.5714,-34.9386],[-71.5776,-34.9374],[-71.5805,-34.9263],[-71.5687,-34.9106],[-71.5618,-34.9156],[-71.5437,-34.8887],[-71.5401,-34.8891],[-71.5268,-34.8762],[-71.5156,-34.8757],[-71.4962,-34.892],[-71.4831,-34.8916],[-71.4777,-34.8968],[-71.4641,-34.9007],[-71.4529,-34.8942],[-71.4515,-34.8876],[-71.4455,-34.882],[-71.4377,-34.8801],[-71.4345,-34.8846],[-71.4256,-34.8861],[-71.4204,-34.897],[-71.421,-34.9045],[-71.4086,-34.8968],[-71.3975,-34.8944],[-71.385,-34.9077],[-71.3653,-34.9127],[-71.3692,-34.8951],[-71.377,-34.8955],[-71.3869,-34.8866],[-71.3874,-34.8742],[-71.3777,-34.8552],[-71.3833,-34.8501],[-71.3754,-34.8358],[-71.3716,-34.833],[-71.3607,-34.833],[-71.3609,-34.8332]]]}},{"type":"Feature","properties":{"cod_comuna":7308,"codregion":7,"Comuna":"Teno","Provincia":"Curicó","Region":"Región del Maule"},"geometry":{"type":"Polygon","coordinates":[[[-71.1319,-34.7903],[-71.0987,-34.8281],[-71.0697,-34.8213],[-71.0527,-34.8055],[-71.0469,-34.7925],[-71.0454,-34.7966],[-71.035,-34.8005],[-71.0238,-34.8098],[-71.0167,-34.825],[-71.0011,-34.8274],[-70.9972,-34.8333],[-70.9818,-34.8394],[-70.9796,-34.8467],[-70.9674,-34.8602],[-70.9683,-34.8647],[-70.9575,-34.872],[-70.9257,-34.8589],[-70.9062,-34.8575],[-70.8833,-34.8501],[-70.8639,-34.8528],[-70.8539,-34.8597],[-70.8458,-34.8601],[-70.8202,-34.8712],[-70.8156,-34.8661],[-70.8178,-34.8608],[-70.8114,-34.8532],[-70.7975,-34.8529],[-70.7896,-34.8601],[-70.7753,-34.858],[-70.7607,-34.8664],[-70.7586,-34.872],[-70.7504,-34.8766],[-70.7496,-34.8948],[-70.7554,-34.9055],[-70.7668,-34.9157],[-70.7658,-34.9273],[-70.773,-34.9358],[-70.7723,-34.9416],[-70.7866,-34.9655],[-70.8008,-34.9703],[-70.7954,-34.9773],[-70.7957,-34.9876],[-70.8072,-34.9974],[-70.8208,-34.9965],[-70.8274,-35.0032],[-70.8407,-35.0014],[-70.8666,-34.9856],[-70.8862,-34.9832],[-70.8921,-34.9795],[-70.9154,-34.9832],[-70.9504,-34.9728],[-70.9807,-34.971],[-70.9943,-34.951],[-71.0027,-34.9447],[-71.0263,-34.9453],[-71.0463,-34.9417],[-71.0623,-34.934],[-71.0902,-34.9122],[-71.1537,-34.9094],[-71.1585,-34.9038],[-71.1777,-34.8974],[-71.1829,-34.8985],[-71.199,-34.8877],[-71.2145,-34.891],[-71.2484,-34.9187],[-71.2592,-34.9221],[-71.2631,-34.9296],[-71.2655,-34.9139],[-71.271,-34.9138],[-71.2714,-34.9028],[-71.2676,-34.9021],[-71.2724,-34.8895],[-71.26,-34.8869],[-71.2635,-34.8685],[-71.314,-34.8685],[-71.3308,-34.8631],[-71.336,-34.867],[-71.341,-34.8562],[-71.3519,-34.8461],[-71.362,-34.8485],[-71.3657,-34.8442],[-71.3579,-34.8263],[-71.3448,-34.831],[-71.3366,-34.8284],[-71.3162,-34.816],[-71.3121,-34.81],[-71.3142,-34.8021],[-71.3089,-34.8015],[-71.3022,-34.7952],[-71.2939,-34.7971],[-71.2789,-34.7917],[-71.2663,-34.7991],[-71.2611,-34.8244],[-71.2447,-34.8276],[-71.2311,-34.8259],[-71.22,-34.8343],[-71.2134,-34.8353],[-71.1944,-34.8218],[-71.1891,-34.8044],[-71.1805,-34.8061],[-71.1761,-34.802],[-71.1537,-34.7997],[-71.1434,-34.7897],[-71.1387,-34.7906],[-71.1349,-34.7864],[-71.1334,-34.7882],[-71.1319,-34.7903]]]}},{"type":"Feature","properties":{"cod_comuna":7306,"codregion":7,"Comuna":"Romeral","Provincia":"Curicó","Region":"Región del Maule"},"geometry":{"type":"Polygon","coordinates":[[[-70.6184,-34.9784],[-70.6149,-34.9608],[-70.5983,-34.9569],[-70.5861,-34.9617],[-70.5835,-34.9574],[-70.5681,-34.9526],[-70.5709,-34.9448],[-70.5683,-34.9397],[-70.5544,-34.9395],[-70.5413,-34.9339],[-70.5382,-34.9503],[-70.5237,-34.9516],[-70.5258,-34.965],[-70.5108,-34.9721],[-70.4996,-34.9708],[-70.4873,-34.9759],[-70.4777,-34.9942],[-70.4655,-34.9906],[-70.4291,-34.9887],[-70.4153,-34.9837],[-70.395,-34.9916],[-70.3897,-34.9987],[-70.3773,-34.998],[-70.365,-35.0053],[-70.3665,-35.0167],[-70.3613,-35.0206],[-70.3604,-35.0348],[-70.3728,-35.0411],[-70.3768,-35.0502],[-70.3715,-35.0666],[-70.3734,-35.0865],[-70.3702,-35.0933],[-70.3576,-35.0989],[-70.3702,-35.1118],[-70.3678,-35.1246],[-70.3614,-35.1347],[-70.372,-35.1505],[-70.3705,-35.1535],[-70.3766,-35.1663],[-70.3745,-35.1698],[-70.3787,-35.1734],[-70.388,-35.1695],[-70.4025,-35.1801],[-70.4212,-35.1835],[-70.4363,-35.1934],[-70.45,-35.1959],[-70.4551,-35.1897],[-70.4578,-35.1951],[-70.4723,-35.2039],[-70.5044,-35.2012],[-70.5144,-35.2026],[-70.518,-35.2065],[-70.5255,-35.2024],[-70.5245,-35.1956],[-70.5269,-35.1943],[-70.5431,-35.2028],[-70.5579,-35.2195],[-70.5679,-35.2235],[-70.5639,-35.235],[-70.5651,-35.2426],[-70.5724,-35.2495],[-70.5731,-35.2573],[-70.5792,-35.2579],[-70.5773,-35.2652],[-70.5821,-35.2686],[-70.5817,-35.2726],[-70.5902,-35.2606],[-70.6132,-35.26],[-70.632,-35.2641],[-70.6335,-35.257],[-70.6453,-35.2516],[-70.6426,-35.2479],[-70.6445,-35.2443],[-70.6525,-35.2441],[-70.6635,-35.2522],[-70.6815,-35.2514],[-70.7058,-35.2399],[-70.7264,-35.2529],[-70.7337,-35.2448],[-70.7326,-35.2315],[-70.736,-35.2242],[-70.7358,-35.219],[-70.7257,-35.2054],[-70.7266,-35.1936],[-70.7372,-35.1891],[-70.7493,-35.1904],[-70.7549,-35.1833],[-70.773,-35.1767],[-70.7767,-35.1798],[-70.8051,-35.1749],[-70.8328,-35.1591],[-70.8392,-35.1479],[-70.8457,-35.1476],[-70.8477,-35.1381],[-70.8514,-35.1349],[-70.8718,-35.128],[-70.8783,-35.1229],[-70.9048,-35.1181],[-70.9217,-35.1037],[-70.9367,-35.0982],[-70.945,-35.1008],[-70.9556,-35.095],[-70.9609,-35.0883],[-70.9854,-35.0842],[-70.9921,-35.0786],[-71.0056,-35.077],[-71.0333,-35.0653],[-71.0514,-35.0614],[-71.0555,-35.0693],[-71.065,-35.0675],[-71.0761,-35.0718],[-71.0892,-35.0679],[-71.0925,-35.0564],[-71.1052,-35.0596],[-71.1044,-35.0537],[-71.1093,-35.0442],[-71.1078,-35.0392],[-71.1136,-35.0376],[-71.1109,-35.0323],[-71.1165,-35.0222],[-71.1124,-35.0185],[-71.1139,-35.015],[-71.1207,-35.0151],[-71.1226,-35.0106],[-71.1114,-34.9964],[-71.1161,-34.9934],[-71.1246,-34.9947],[-71.1403,-34.9879],[-71.1592,-34.9631],[-71.1755,-34.9637],[-71.185,-34.9725],[-71.1938,-34.9755],[-71.1962,-34.9803],[-71.2051,-34.9801],[-71.2079,-34.9887],[-71.2158,-34.9836],[-71.199,-34.9725],[-71.1611,-34.9169],[-71.1588,-34.9037],[-71.1537,-34.9094],[-71.0902,-34.9122],[-71.0495,-34.9407],[-71.0263,-34.9453],[-71.0027,-34.9447],[-70.9943,-34.951],[-70.9807,-34.971],[-70.9504,-34.9728],[-70.9154,-34.9832],[-70.8921,-34.9795],[-70.8862,-34.9832],[-70.8666,-34.9856],[-70.8407,-35.0014],[-70.8264,-35.0032],[-70.8217,-34.9968],[-70.8076,-34.9976],[-70.7957,-34.9876],[-70.7954,-34.9773],[-70.8008,-34.9703],[-70.7866,-34.9655],[-70.7796,-34.9502],[-70.7756,-34.9481],[-70.7723,-34.9416],[-70.7733,-34.9365],[-70.7651,-34.9247],[-70.7668,-34.9157],[-70.7554,-34.9055],[-70.7482,-34.8847],[-70.7206,-34.8975],[-70.7135,-34.9036],[-70.7113,-34.9147],[-70.7026,-34.9175],[-70.6948,-34.9258],[-70.6854,-34.9241],[-70.6689,-34.9457],[-70.6667,-34.9621],[-70.6615,-34.9661],[-70.641,-34.975],[-70.6223,-34.9876],[-70.6186,-34.9858],[-70.6184,-34.9785],[-70.6184,-34.9784]]]}},{"type":"Feature","properties":{"cod_comuna":7404,"codregion":7,"Comuna":"Parral","Provincia":"Linares","Region":"Región del Maule"},"geometry":{"type":"Polygon","coordinates":[[[-72.0234,-35.9164],[-72.0194,-35.918],[-72.025,-35.9329],[-72.0103,-35.9463],[-72.0077,-35.9595],[-72.0169,-35.9645],[-72.0186,-35.9716],[-72.0061,-35.9764],[-72.0068,-35.982],[-72.0028,-35.9827],[-72.0002,-35.9889],[-72.003,-35.9965],[-71.9992,-35.9994],[-71.9991,-36.0171],[-71.9944,-36.0198],[-71.9979,-36.0328],[-71.9928,-36.0454],[-71.9937,-36.0522],[-71.9811,-36.054],[-71.9742,-36.0597],[-71.9712,-36.0693],[-71.9641,-36.0765],[-71.9573,-36.0789],[-71.9527,-36.077],[-71.944,-36.0826],[-71.9335,-36.0823],[-71.931,-36.0888],[-71.9207,-36.0921],[-71.8994,-36.0725],[-71.9026,-36.0705],[-71.8902,-36.0625],[-71.911,-36.0563],[-71.9087,-36.0531],[-71.9104,-36.0496],[-71.9147,-36.0468],[-71.922,-36.0294],[-71.9256,-36.0281],[-71.8714,-36.006],[-71.8731,-36.0162],[-71.8721,-36.0223],[-71.8689,-36.0235],[-71.8685,-36.0343],[-71.8565,-36.0473],[-71.8456,-36.0682],[-71.829,-36.0767],[-71.8189,-36.0774],[-71.8127,-36.0825],[-71.8079,-36.107],[-71.7988,-36.1249],[-71.78,-36.1432],[-71.7748,-36.1525],[-71.7683,-36.1534],[-71.7754,-36.1705],[-71.7641,-36.1759],[-71.7544,-36.1756],[-71.7215,-36.202],[-71.7115,-36.2005],[-71.7055,-36.2036],[-71.6752,-36.2055],[-71.6682,-36.2139],[-71.62,-36.2132],[-71.6055,-36.2182],[-71.5941,-36.2065],[-71.5872,-36.2172],[-71.5751,-36.2112],[-71.584,-36.2061],[-71.5884,-36.2071],[-71.5897,-36.2032],[-71.564,-36.1961],[-71.5625,-36.1991],[-71.5655,-36.2041],[-71.5575,-36.2215],[-71.5355,-36.2309],[-71.5275,-36.2293],[-71.5214,-36.238],[-71.5105,-36.2386],[-71.4976,-36.2342],[-71.4955,-36.2252],[-71.4822,-36.219],[-71.4695,-36.2216],[-71.4681,-36.2196],[-71.4483,-36.2374],[-71.4455,-36.2336],[-71.4359,-36.2361],[-71.4234,-36.2323],[-71.4156,-36.2353],[-71.4034,-36.2298],[-71.3871,-36.2289],[-71.3764,-36.236],[-71.3683,-36.2358],[-71.3695,-36.2393],[-71.3595,-36.2423],[-71.3504,-36.2545],[-71.3417,-36.2557],[-71.3348,-36.2692],[-71.3384,-36.2739],[-71.3251,-36.2814],[-71.326,-36.2851],[-71.3224,-36.2888],[-71.3137,-36.2873],[-71.3013,-36.3021],[-71.3024,-36.3065],[-71.2974,-36.3127],[-71.299,-36.3157],[-71.2949,-36.3183],[-71.2955,-36.3279],[-71.2861,-36.3416],[-71.2876,-36.3472],[-71.2644,-36.3527],[-71.2371,-36.3793],[-71.229,-36.3813],[-71.2089,-36.3768],[-71.1887,-36.3813],[-71.1761,-36.388],[-71.1671,-36.3866],[-71.1644,-36.3772],[-71.1511,-36.3718],[-71.1439,-36.3581],[-71.1427,-36.3436],[-71.1257,-36.327],[-71.1073,-36.3376],[-71.1103,-36.342],[-71.1103,-36.3553],[-71.1139,-36.3618],[-71.1403,-36.3777],[-71.1557,-36.4056],[-71.1638,-36.4005],[-71.17,-36.4043],[-71.1804,-36.4036],[-71.1843,-36.4092],[-71.1924,-36.4129],[-71.197,-36.4186],[-71.1971,-36.4384],[-71.2084,-36.4484],[-71.2208,-36.4511],[-71.2249,-36.4627],[-71.2333,-36.4659],[-71.247,-36.4597],[-71.2627,-36.44],[-71.2701,-36.441],[-71.2815,-36.4484],[-71.286,-36.4591],[-71.2938,-36.4639],[-71.2954,-36.4785],[-71.3069,-36.4836],[-71.3085,-36.5026],[-71.3154,-36.5149],[-71.3153,-36.5215],[-71.3193,-36.5238],[-71.3203,-36.532],[-71.3302,-36.5421],[-71.3375,-36.5435],[-71.3447,-36.5357],[-71.3462,-36.5198],[-71.3528,-36.5125],[-71.3943,-36.5101],[-71.4098,-36.5032],[-71.417,-36.4927],[-71.4199,-36.4804],[-71.4308,-36.467],[-71.4327,-36.4542],[-71.438,-36.4522],[-71.4384,-36.433],[-71.4481,-36.4302],[-71.4499,-36.4243],[-71.4672,-36.4121],[-71.5025,-36.4155],[-71.5161,-36.4048],[-71.5223,-36.4092],[-71.5448,-36.4073],[-71.5487,-36.4029],[-71.5712,-36.4043],[-71.583,-36.3925],[-71.5975,-36.3898],[-71.6098,-36.381],[-71.6232,-36.3772],[-71.628,-36.372],[-71.6394,-36.3742],[-71.6542,-36.3704],[-71.6684,-36.3622],[-71.701,-36.3533],[-71.7008,-36.3482],[-71.7134,-36.3452],[-71.7215,-36.3341],[-71.7399,-36.3197],[-71.7679,-36.3081],[-71.768,-36.3037],[-71.7744,-36.3008],[-71.7744,-36.2967],[-71.7863,-36.2929],[-71.7942,-36.284],[-71.7933,-36.2801],[-71.797,-36.2752],[-71.8036,-36.2727],[-71.8046,-36.2627],[-71.8113,-36.2592],[-71.8116,-36.2548],[-71.823,-36.256],[-71.8338,-36.2512],[-71.8451,-36.2558],[-71.8483,-36.2543],[-71.8468,-36.2471],[-71.8635,-36.2459],[-71.8725,-36.2575],[-71.8881,-36.2626],[-71.896,-36.2616],[-71.8987,-36.2656],[-71.9091,-36.2687],[-71.9208,-36.2591],[-71.9444,-36.2586],[-71.9544,-36.2548],[-71.9565,-36.2504],[-71.9638,-36.2524],[-71.9662,-36.2593],[-71.9727,-36.2595],[-71.9808,-36.252],[-71.9804,-36.2398],[-71.9922,-36.2418],[-71.9932,-36.2315],[-71.9993,-36.2272],[-71.9997,-36.2169],[-71.9906,-36.2128],[-71.9906,-36.2087],[-71.9973,-36.2089],[-72.0007,-36.203],[-72.0125,-36.1988],[-72.0116,-36.1916],[-72.0204,-36.1897],[-72.0246,-36.1835],[-72.0227,-36.1751],[-72.036,-36.1763],[-72.0593,-36.1567],[-72.0728,-36.1563],[-72.0729,-36.1514],[-72.0692,-36.1499],[-72.0791,-36.1405],[-72.0724,-36.1374],[-72.0752,-36.1313],[-72.0883,-36.1306],[-72.0991,-36.1371],[-72.0984,-36.1256],[-72.1032,-36.1233],[-72.0966,-36.117],[-72.1048,-36.107],[-72.1065,-36.0816],[-72.1046,-36.0791],[-72.0987,-36.081],[-72.0938,-36.0733],[-72.0832,-36.0744],[-72.0748,-36.0505],[-72.0689,-36.0446],[-72.075,-36.0367],[-72.076,-36.0266],[-72.0582,-35.9967],[-72.0688,-35.9886],[-72.0551,-35.9792],[-72.0646,-35.9679],[-72.0494,-35.9501],[-72.0462,-35.9357],[-72.0321,-35.928],[-72.03,-35.9171],[-72.0234,-35.9163],[-72.0234,-35.9164]]]}}]}